Clinic Name,Clinic Street Address,City,State,Postcode,Phone Number,Fax Number,Website address,Staff Names
Vasse Dental,3/21 Napoleon Promenade,Vasse,WA,6280,897550548,897550542,http://www.vassedental.com.au,"['Dr Tara Gopal', 'Dr Bryan Fleming', 'Dr Timothy Steven']"
Allied Dental Ocean Keys,Ocean Keys Shopping Centre,Clarkson,WA,6030,861746705,1300859359,http://www.allieddental.com.au,"['Dr Jeff Luebbert', 'Dr Cina Yaqub', 'Dr Sally Choden', 'Dr Jonathan Ng', 'Dr Viviane Nguyen']"
All Dental Pinjarra,39 McLarty road,Pinjarra,WA,6208,865556503,Not Available,http://www.alldentalpinjarra.com.au,"['Dr Lee Jasson', 'Dr Faisal Syed', 'Dr Sharifa Shaik']"
Alkimos Beach Dental Centre,Suite 8 / 15 Graceful Blvd,Alkimos,WA,6038,895029901,Not Available,https://www.alkimosbeachdental.net.au/,['Dr Paul Boulos - Dentist']
Exceptional Dental Care,Suite 2 / 21 Mell road,Spearwood,WA,6163,861540330,Not Available,http://www.exceptionaldentalcare.com.au,"['Dr Jeremy Foster', 'Dr Sharifa Shaik', 'Dr Alexis Ong']"
Australind Family Dentistry,Unit 1 / 12 Leisure Drive,Australind,WA,6233,897258005,not available,not available,['Dr Bhumit Shah']
Heathridge Dental centre,Unit 8 / 99 Caridean Street,Heathridge,WA,6027,893087145,Not Available,https://www.heathridgedentalcentre.com.au/,"['Dr Hetal Hirpara', 'Dr Rahul Pankhaniya', 'Dr Somil Kharbanda', 'Dr Akanksha Dalwadi', 'Dr Sanjana Mehta', 'Dr Ravi Haria']"
Allied Dental Centre Port Coogee,2B / 6 Calypso Parade,Coogee,WA,6163,861746704,894986800,http://www.allieddental.com.au,"['Dr Michelle Tien', 'Dr Claire Waldock', 'Dr Vincent Goh', 'Dr Natania Ong']"
The London Clinic - Dental,Claremont Medical Centre,Claremont,WA,6010,892842781,1300123852,http://www.thelondonclinicdental.com.au,['Dr Amy Bailey']
Admire Dental,Shop 16 / 150 Camborne Parkway,Butler,WA,6036,895625866,Not Available,https://www.admiredental.com.au,['Dr Hau Yan Chan']
Kinross Drive Dental,Unit 4a / 59 Kinross Drive,Kinross,WA,6028,862016555,Not Available,http://www.kddental.com.au/,"['Dr Silvia Sutikno', 'Dr Tina Nguyen', 'Dr Jessica Filipiak']"
First Impressions Dental - Padbury (previously Glengarry Dental),1/6 Blackwattle Parade,Padbury,WA,6025,894480804,Not Available,http://www.firstimpressionsdental.com.au/index.html,"['Dr Silas Prashant', 'Dr Elissa Boon', 'Dr Vrej Boyadjian', 'Dr Ezra Oon', 'Dr Grace Gilbert', 'Dr Saroj Kamble']"
Jupiter Dental Clinic Lakelands,not available,not available,not available,not available,not available,not available,http://www.jupiterdentalclinic.com.au,"['Dr Paul Chung', 'Dr Nikita Nepali', 'Dr Elton Wong']"
Butler Village Family Dental,Unit 3 / 2 Marchwood Boulevard,Butler,WA,6036,861884508,Not Available,http://www.butlervillagedental.com.au/,"['Dr Clemontine Williams', 'Dr Kanagashegri Naicker', 'Dr Richard McDonald']"
Bicton Dental Clinic,40 Foss Street,Bicton,WA,6157,08 9339 8008,08 9339 5732,http://www.bictondental.com.au/,['Dr Ari Khadembashi']
Port Kennedy Central Dental Care,Port Kennedy Central Shops,Kennedy,WA,6172,865007345,Not Available,http://portkennedycentraldentalcare.com.au,"['Dr Sonu (Sonia) Yadav', 'Dr Pal Singh', 'Dr Jeremy Foster', 'Dr Peter Brand']"
Glencoe Dental Studios,78A Glencoe Parade,Head,WA,6210,895558900,Not Available,http://www.glencoedental.com.au/,"['Dr Jeremy Foster', 'Dr Debbie Quail']"
Eaton Family Dental Practice,9 Albatross Crescent,Eaton,WA,6232,897251688,Not Available,http://www.fadc.com.au/,"['Dr Brandon Soh', 'Dr Charles Sun', 'Dr Ching Wen Tan', 'Dr Alan Lim', 'Dr Zach Lawrence']"
W Dental Baldivis,Suite 1 / 9 Atwick Terrace,Baldivis,WA,6171,08 9523 0552,08 9591 8120,https://www.wdentalbaldivis.com.au,['Dr Julene Wong']
Beyond Smiles Dental - Yanchep,u3 / 105 Lindsay Beach Blvd,Yanchep,WA,6035,895616451,895615628,http://www.beyondsmilesdental.com.au,"['Dr Karthik Dorairaj', 'Dr Sarmah Nayeem', 'Dr Grishma Patel']"
Kinross Drive Dental,Unit 4a / 59 Kinross Drive,Kinross,WA,6028,862016555,Not Available,http://www.kddental.com.au/,"['Dr Silvia Sutikno', 'Dr Tina Nguyen', 'Dr Jessica Filipiak']"
First Impressions Dental - Padbury (previously Glengarry Dental),1/6 Blackwattle Parade,Padbury,WA,6025,894480804,Not Available,http://www.firstimpressionsdental.com.au/index.html,"['Dr Silas Prashant', 'Dr Elissa Boon', 'Dr Vrej Boyadjian', 'Dr Ezra Oon', 'Dr Grace Gilbert', 'Dr Saroj Kamble']"
Jupiter Dental Clinic Lakelands,not available,not available,not available,not available,not available,not available,http://www.jupiterdentalclinic.com.au,"['Dr Paul Chung', 'Dr Nikita Nepali', 'Dr Elton Wong']"
Butler Village Family Dental,Unit 3 / 2 Marchwood Boulevard,Butler,WA,6036,861884508,Not Available,http://www.butlervillagedental.com.au/,"['Dr Clemontine Williams', 'Dr Kanagashegri Naicker', 'Dr Richard McDonald']"
Bicton Dental Clinic,40 Foss Street,Bicton,WA,6157,08 9339 8008,08 9339 5732,http://www.bictondental.com.au/,['Dr Ari Khadembashi']
Port Kennedy Central Dental Care,Port Kennedy Central Shops,Kennedy,WA,6172,865007345,Not Available,http://portkennedycentraldentalcare.com.au,"['Dr Sonu (Sonia) Yadav', 'Dr Pal Singh', 'Dr Jeremy Foster', 'Dr Peter Brand']"
Glencoe Dental Studios,78A Glencoe Parade,Head,WA,6210,895558900,Not Available,http://www.glencoedental.com.au/,"['Dr Jeremy Foster', 'Dr Debbie Quail']"
Eaton Family Dental Practice,9 Albatross Crescent,Eaton,WA,6232,897251688,Not Available,http://www.fadc.com.au/,"['Dr Brandon Soh', 'Dr Charles Sun', 'Dr Ching Wen Tan', 'Dr Alan Lim', 'Dr Zach Lawrence']"
W Dental Baldivis,Suite 1 / 9 Atwick Terrace,Baldivis,WA,6171,08 9523 0552,08 9591 8120,https://www.wdentalbaldivis.com.au,['Dr Julene Wong']
Beyond Smiles Dental - Yanchep,u3 / 105 Lindsay Beach Blvd,Yanchep,WA,6035,895616451,895615628,http://www.beyondsmilesdental.com.au,"['Dr Karthik Dorairaj', 'Dr Sarmah Nayeem', 'Dr Grishma Patel']"
Kinross Drive Dental,Unit 4a / 59 Kinross Drive,Kinross,WA,6028,862016555,Not Available,http://www.kddental.com.au/,"['Dr Silvia Sutikno', 'Dr Tina Nguyen', 'Dr Jessica Filipiak']"
First Impressions Dental - Padbury (previously Glengarry Dental),1/6 Blackwattle Parade,Padbury,WA,6025,894480804,Not Available,http://www.firstimpressionsdental.com.au/index.html,"['Dr Silas Prashant', 'Dr Elissa Boon', 'Dr Vrej Boyadjian', 'Dr Ezra Oon', 'Dr Grace Gilbert', 'Dr Saroj Kamble']"
Jupiter Dental Clinic Lakelands,not available,not available,not available,not available,not available,not available,http://www.jupiterdentalclinic.com.au,"['Dr Paul Chung', 'Dr Nikita Nepali', 'Dr Elton Wong']"
Butler Village Family Dental,Unit 3 / 2 Marchwood Boulevard,Butler,WA,6036,861884508,Not Available,http://www.butlervillagedental.com.au/,"['Dr Clemontine Williams', 'Dr Kanagashegri Naicker', 'Dr Richard McDonald']"
Bicton Dental Clinic,40 Foss Street,Bicton,WA,6157,08 9339 8008,08 9339 5732,http://www.bictondental.com.au/,['Dr Ari Khadembashi']
Port Kennedy Central Dental Care,Port Kennedy Central Shops,Kennedy,WA,6172,865007345,Not Available,http://portkennedycentraldentalcare.com.au,"['Dr Sonu (Sonia) Yadav', 'Dr Pal Singh', 'Dr Jeremy Foster', 'Dr Peter Brand']"
Glencoe Dental Studios,78A Glencoe Parade,Head,WA,6210,895558900,Not Available,http://www.glencoedental.com.au/,"['Dr Jeremy Foster', 'Dr Debbie Quail']"
Eaton Family Dental Practice,9 Albatross Crescent,Eaton,WA,6232,897251688,Not Available,http://www.fadc.com.au/,"['Dr Brandon Soh', 'Dr Charles Sun', 'Dr Ching Wen Tan', 'Dr Alan Lim', 'Dr Zach Lawrence']"
W Dental Baldivis,Suite 1 / 9 Atwick Terrace,Baldivis,WA,6171,08 9523 0552,08 9591 8120,https://www.wdentalbaldivis.com.au,['Dr Julene Wong']
Beyond Smiles Dental - Yanchep,u3 / 105 Lindsay Beach Blvd,Yanchep,WA,6035,895616451,895615628,http://www.beyondsmilesdental.com.au,"['Dr Karthik Dorairaj', 'Dr Sarmah Nayeem', 'Dr Grishma Patel']"
Kinross Drive Dental,Unit 4a / 59 Kinross Drive,Kinross,WA,6028,862016555,Not Available,http://www.kddental.com.au/,"['Dr Silvia Sutikno', 'Dr Tina Nguyen', 'Dr Jessica Filipiak']"
First Impressions Dental - Padbury (previously Glengarry Dental),1/6 Blackwattle Parade,Padbury,WA,6025,894480804,Not Available,http://www.firstimpressionsdental.com.au/index.html,"['Dr Silas Prashant', 'Dr Elissa Boon', 'Dr Vrej Boyadjian', 'Dr Ezra Oon', 'Dr Grace Gilbert', 'Dr Saroj Kamble']"
Jupiter Dental Clinic Lakelands,not available,not available,not available,not available,not available,not available,http://www.jupiterdentalclinic.com.au,"['Dr Paul Chung', 'Dr Nikita Nepali', 'Dr Elton Wong']"
Butler Village Family Dental,Unit 3 / 2 Marchwood Boulevard,Butler,WA,6036,861884508,Not Available,http://www.butlervillagedental.com.au/,"['Dr Clemontine Williams', 'Dr Kanagashegri Naicker', 'Dr Richard McDonald']"
Bicton Dental Clinic,40 Foss Street,Bicton,WA,6157,08 9339 8008,08 9339 5732,http://www.bictondental.com.au/,['Dr Ari Khadembashi']
Port Kennedy Central Dental Care,Port Kennedy Central Shops,Kennedy,WA,6172,865007345,Not Available,http://portkennedycentraldentalcare.com.au,"['Dr Sonu (Sonia) Yadav', 'Dr Pal Singh', 'Dr Jeremy Foster', 'Dr Peter Brand']"
Glencoe Dental Studios,78A Glencoe Parade,Head,WA,6210,895558900,Not Available,http://www.glencoedental.com.au/,"['Dr Jeremy Foster', 'Dr Debbie Quail']"
Eaton Family Dental Practice,9 Albatross Crescent,Eaton,WA,6232,897251688,Not Available,http://www.fadc.com.au/,"['Dr Brandon Soh', 'Dr Charles Sun', 'Dr Ching Wen Tan', 'Dr Alan Lim', 'Dr Zach Lawrence']"
W Dental Baldivis,Suite 1 / 9 Atwick Terrace,Baldivis,WA,6171,08 9523 0552,08 9591 8120,https://www.wdentalbaldivis.com.au,['Dr Julene Wong']
Beyond Smiles Dental - Yanchep,u3 / 105 Lindsay Beach Blvd,Yanchep,WA,6035,895616451,895615628,http://www.beyondsmilesdental.com.au,"['Dr Karthik Dorairaj', 'Dr Sarmah Nayeem', 'Dr Grishma Patel']"
Dental O So Gentle @ Beldon,Beldon Medical Centre,Beldon,WA,6027,893077122,Not Available,http://www.dentalosogentle.com.au,"['Dr Rohan Jagota', 'Dr Nadia Roe', 'Dr Ileana Kalamaras']"
Yanchep Central Dental,Yanchep Central Shopping Centre,Yanchep,WA,6035,895611977,Not Available,http://www.yanchepcentraldental.com.au,"['Dr Chris Qui Huynh', 'Dr Thilini Wijewardane']"
Melville Family Dental,340 Marmion Street,Melville,WA,6156,893308655,Not Available,https://www.melvillefamilyhealthcentre.com.au,"['Dr Mostafa Hussain', 'Dr Aus Hmud', 'Dr Yousr Kanbour']"
Jindalee Family Dental,Jindalee Central,Jindalee,WA,6036,895620327,Not Available,https://www.jindaleefamilydental.com.au/,"['Dr Helmut ""Mick"" Goette']"
All In One Dental,All In One Dental,Spearwood,WA,6163,894941223,Not Available,http://www.allinonedental.com.au,"['Dr Hareesh Thippeswamy', 'Dr Swathi Dasari', 'Dr Jeetash Kumar']"
DB Dental Currambine,Unit 2 / 1 Hobsons Gate,Currambine,WA,6028,1300483384,1300483384,http://www.dbdental.com.au,"['Dr Ryan Butler', 'Dr Gurpreet Virdee', 'Dr Darren Cai', 'Dr Esther McCorry', 'Dr Kent Boon', 'Dr Adam Fell']"
DB Dental Cottesloe,Cottesloe Medical Centre,Cottesloe,WA,6011,1300483384,1300483384,http://www.dbdental.com.au/dentist-cottesloe,"['Dr Suhail Wardak', 'Dr James Cope', 'Dr Adam Fell', 'Dr Sanjna Shah', 'Dr Daniel Bontempo', ""Dr Brian O'donovan""]"
DB Dental Brighton,Unit 5 / 2359 Marmion Avenue,Jindalee,WA,6036,1300483384,1300483384,http://www.dbdental.com.au,"['Dr Shane Barton', 'Dr Seanne Brookes', 'Dr Ushna Amin', 'Dr Meghesh Shelat', 'Dr Kent Boon', 'Dr Femi Moradi']"
Currambine Dental,Currambine District Centre,Currambine,WA,6028,893040300,893040611,http://www.currambinedentist.com.au,"['Dr Peter Malan', 'Dr Farnaz Dehghan', 'Dr Rene Kruger', 'Dr Rachit Shah']"
North Beach Dental Surgery,2 / 118 Flora Terrace,Beach,WA,6020,894471514,894471075,http://www.northbeachdental.com.au/,"['Dr Shoko Tsuchiya', 'Dr Antonia De Lima']"
Dental O So Gentle @ Beldon,Beldon Medical Centre,Beldon,WA,6027,893077122,Not Available,http://www.dentalosogentle.com.au,"['Dr Rohan Jagota', 'Dr Nadia Roe', 'Dr Ileana Kalamaras']"
Yanchep Central Dental,Yanchep Central Shopping Centre,Yanchep,WA,6035,895611977,Not Available,http://www.yanchepcentraldental.com.au,"['Dr Chris Qui Huynh', 'Dr Thilini Wijewardane']"
Melville Family Dental,340 Marmion Street,Melville,WA,6156,893308655,Not Available,https://www.melvillefamilyhealthcentre.com.au,"['Dr Mostafa Hussain', 'Dr Aus Hmud', 'Dr Yousr Kanbour']"
Jindalee Family Dental,Jindalee Central,Jindalee,WA,6036,895620327,Not Available,https://www.jindaleefamilydental.com.au/,"['Dr Helmut ""Mick"" Goette']"
All In One Dental,All In One Dental,Spearwood,WA,6163,894941223,Not Available,http://www.allinonedental.com.au,"['Dr Hareesh Thippeswamy', 'Dr Swathi Dasari', 'Dr Jeetash Kumar']"
DB Dental Currambine,Unit 2 / 1 Hobsons Gate,Currambine,WA,6028,1300483384,1300483384,http://www.dbdental.com.au,"['Dr Ryan Butler', 'Dr Gurpreet Virdee', 'Dr Darren Cai', 'Dr Esther McCorry', 'Dr Kent Boon', 'Dr Adam Fell']"
DB Dental Cottesloe,Cottesloe Medical Centre,Cottesloe,WA,6011,1300483384,1300483384,http://www.dbdental.com.au/dentist-cottesloe,"['Dr Suhail Wardak', 'Dr James Cope', 'Dr Adam Fell', 'Dr Sanjna Shah', 'Dr Daniel Bontempo', ""Dr Brian O'donovan""]"
DB Dental Brighton,Unit 5 / 2359 Marmion Avenue,Jindalee,WA,6036,1300483384,1300483384,http://www.dbdental.com.au,"['Dr Shane Barton', 'Dr Seanne Brookes', 'Dr Ushna Amin', 'Dr Meghesh Shelat', 'Dr Kent Boon', 'Dr Femi Moradi']"
Currambine Dental,Currambine District Centre,Currambine,WA,6028,893040300,893040611,http://www.currambinedentist.com.au,"['Dr Peter Malan', 'Dr Farnaz Dehghan', 'Dr Rene Kruger', 'Dr Rachit Shah']"
North Beach Dental Surgery,2 / 118 Flora Terrace,Beach,WA,6020,894471514,894471075,http://www.northbeachdental.com.au/,"['Dr Shoko Tsuchiya', 'Dr Antonia De Lima']"
Dental O So Gentle @ Beldon,Beldon Medical Centre,Beldon,WA,6027,893077122,Not Available,http://www.dentalosogentle.com.au,"['Dr Rohan Jagota', 'Dr Nadia Roe', 'Dr Ileana Kalamaras']"
Yanchep Central Dental,Yanchep Central Shopping Centre,Yanchep,WA,6035,895611977,Not Available,http://www.yanchepcentraldental.com.au,"['Dr Chris Qui Huynh', 'Dr Thilini Wijewardane']"
Melville Family Dental,340 Marmion Street,Melville,WA,6156,893308655,Not Available,https://www.melvillefamilyhealthcentre.com.au,"['Dr Mostafa Hussain', 'Dr Aus Hmud', 'Dr Yousr Kanbour']"
Jindalee Family Dental,Jindalee Central,Jindalee,WA,6036,895620327,Not Available,https://www.jindaleefamilydental.com.au/,"['Dr Helmut ""Mick"" Goette']"
All In One Dental,All In One Dental,Spearwood,WA,6163,894941223,Not Available,http://www.allinonedental.com.au,"['Dr Hareesh Thippeswamy', 'Dr Swathi Dasari', 'Dr Jeetash Kumar']"
DB Dental Currambine,Unit 2 / 1 Hobsons Gate,Currambine,WA,6028,1300483384,1300483384,http://www.dbdental.com.au,"['Dr Ryan Butler', 'Dr Gurpreet Virdee', 'Dr Darren Cai', 'Dr Esther McCorry', 'Dr Kent Boon', 'Dr Adam Fell']"
DB Dental Cottesloe,Cottesloe Medical Centre,Cottesloe,WA,6011,1300483384,1300483384,http://www.dbdental.com.au/dentist-cottesloe,"['Dr Suhail Wardak', 'Dr James Cope', 'Dr Adam Fell', 'Dr Sanjna Shah', 'Dr Daniel Bontempo', ""Dr Brian O'donovan""]"
DB Dental Brighton,Unit 5 / 2359 Marmion Avenue,Jindalee,WA,6036,1300483384,1300483384,http://www.dbdental.com.au,"['Dr Shane Barton', 'Dr Seanne Brookes', 'Dr Ushna Amin', 'Dr Meghesh Shelat', 'Dr Kent Boon', 'Dr Femi Moradi']"
Currambine Dental,Currambine District Centre,Currambine,WA,6028,893040300,893040611,http://www.currambinedentist.com.au,"['Dr Peter Malan', 'Dr Farnaz Dehghan', 'Dr Rene Kruger', 'Dr Rachit Shah']"
North Beach Dental Surgery,2 / 118 Flora Terrace,Beach,WA,6020,894471514,894471075,http://www.northbeachdental.com.au/,"['Dr Shoko Tsuchiya', 'Dr Antonia De Lima']"
Arca Dental,1 / 94 Delamere Ave,Currambine,WA,6028,893054254,Not Available,http://arcadental.com.au,"['Dr Kushal Kothari', 'Dr Anne Bolton']"
Sunlander Dental Centre,Sunlander Medical and Dental Centre,Currambine,WA,6028,862009060,893054938,http://www.dentistincurrambine.com.au,"['Dr Hetal Hirpara', 'Dr Rahul Pankhaniya', 'Dr Ravi Haria', 'Dr Somil Kharbanda', 'Dr Sanjana Mehta', 'Dr Akanksha Dalwadi']"
West Coast Dental Care,Unit 2 / 23 Bournemouth Crescent,Downs,WA,6019,892051855,Not Available,http://westcoastdentalcare.com.au,['Dr Paul Gorgolis']
Downs Dental Clinic,57 Hale Road,Downs,WA,6019,893417577,893414600,http://www.dentistperth.com,"['Dr John Moran', 'Dr Jessica Quach']"
Claremont Dental,322 Stirling Highway,Claremont,WA,6010,08 9383 1200,08 9383 1300,http://www.claremontdentalperth.com.au,"['Dr Daniel Abbondanza', 'Dr Jana Currall', 'Dr Dominic Etheridge', 'Dr Bayan Habibi']"
Paris Road Family Dental Practice,120 Paris Road,Australind,WA,6233,897258888,Not Available,http://www.fadc.com.au/paris-road-family-dental-practice,"['Dr Alan Lim', 'Dr Joan Fisher', 'Dr Matthew Tan']"
Secret Harbour Dental,Suite 7 / 10 Oasis Drive,Harbour,WA,6173,08 9523 4093,Not Available,http://www.shdental.com,"['Dr Helen Chen', 'Dr Alan Yeong']"
Airey Dental Family Practice,Unit 4 / 2 Antigua Street,Bay,WA,6169,895921863,895924927,http://www.aireydental.com.au/,['Dr Fleur Airey']
Sorrento Seacrest Dental Clinic,22 Harman Rd,Sorrento,WA,6020,892461899,892463077,http://www.dentistperth.com,"['Dr Tim Clair', 'Dr Jason La', 'Dr John Moran', 'Dr Jessica Quach']"
Hillarys Dental Care,33 Green Rd,Hillarys,WA,6025,893079981,893079150,http://www.hillarysdentalcare.com.au,"['Dr Ky Nguyen', 'Dr Parnian Zareie', 'Dr Jonathan Resnick', 'Dr Jason Courtney', 'Dr Mark Pardy', 'Dr Mitra Shabanian']"
Arca Dental,1 / 94 Delamere Ave,Currambine,WA,6028,893054254,Not Available,http://arcadental.com.au,"['Dr Kushal Kothari', 'Dr Anne Bolton']"
Sunlander Dental Centre,Sunlander Medical and Dental Centre,Currambine,WA,6028,862009060,893054938,http://www.dentistincurrambine.com.au,"['Dr Hetal Hirpara', 'Dr Rahul Pankhaniya', 'Dr Ravi Haria', 'Dr Somil Kharbanda', 'Dr Sanjana Mehta', 'Dr Akanksha Dalwadi']"
West Coast Dental Care,Unit 2 / 23 Bournemouth Crescent,Downs,WA,6019,892051855,Not Available,http://westcoastdentalcare.com.au,['Dr Paul Gorgolis']
Downs Dental Clinic,57 Hale Road,Downs,WA,6019,893417577,893414600,http://www.dentistperth.com,"['Dr John Moran', 'Dr Jessica Quach']"
Claremont Dental,322 Stirling Highway,Claremont,WA,6010,08 9383 1200,08 9383 1300,http://www.claremontdentalperth.com.au,"['Dr Daniel Abbondanza', 'Dr Jana Currall', 'Dr Dominic Etheridge', 'Dr Bayan Habibi']"
Paris Road Family Dental Practice,120 Paris Road,Australind,WA,6233,897258888,Not Available,http://www.fadc.com.au/paris-road-family-dental-practice,"['Dr Alan Lim', 'Dr Joan Fisher', 'Dr Matthew Tan']"
Secret Harbour Dental,Suite 7 / 10 Oasis Drive,Harbour,WA,6173,08 9523 4093,Not Available,http://www.shdental.com,"['Dr Helen Chen', 'Dr Alan Yeong']"
Airey Dental Family Practice,Unit 4 / 2 Antigua Street,Bay,WA,6169,895921863,895924927,http://www.aireydental.com.au/,['Dr Fleur Airey']
Sorrento Seacrest Dental Clinic,22 Harman Rd,Sorrento,WA,6020,892461899,892463077,http://www.dentistperth.com,"['Dr Tim Clair', 'Dr Jason La', 'Dr John Moran', 'Dr Jessica Quach']"
Hillarys Dental Care,33 Green Rd,Hillarys,WA,6025,893079981,893079150,http://www.hillarysdentalcare.com.au,"['Dr Ky Nguyen', 'Dr Parnian Zareie', 'Dr Jonathan Resnick', 'Dr Jason Courtney', 'Dr Mark Pardy', 'Dr Mitra Shabanian']"
Hastings Dental Centre,Scarborough Beach Medical Centre / 37 Scarborough Beach Rd,Scarborough,WA,6019,893411022,893418101,http://www.scarboroughbeachdentist.com.au,['Dr Colin Linforth']
Floreat Dental Surgery,24 Floreat Avenue,Floreat,WA,6014,893837711,Not Available,https://floreat-dental-surgery.business.site/,"['Dr Stefan Kolm', 'Dr Bhavnik Shah']"
Brighton Beach Dental,Unit 1 / 22 Hughie Edwards Drive,Merriwa,WA,6030,893051902,893051904,http://www.brightonbeachdental.com.au,"['Dr Richard Slattery', 'Dr Estelle Swart', 'Dr Carika Rossouw', 'Dr Stephanie Kong']"
Anchorage Dental Care,Unit 1 / 6 Rothesay Heights,Mindarie,WA,6030,08 9407 7888,08 9407 8055,http://www.AnchorageDental.com.au,"['Dr Frank Farhadi', 'Dr Michael Shams']"
South Street Dental Centre,South Street Dental / Fremantle Implants,O'Connor,WA,6163,893377388,Not Available,http://southstdental.com.au,"['Dr Michael Ang', 'Dr Henry Chan', 'Dr Te Saw']"
Marmion Dental Care,5 / 11 Sheppard Way,Marmion,WA,6020,894485577,894480551,http://www.marmiondentalcare.com.au,"['Dr Paul Chung', 'Dr Min Kyu Sung']"
Safety Bay Dental Care Centre,90 Parkin Street,Rockingham,WA,6168,895922077,895928078,http://www.safetybaydental.com.au,"['Dr Jeremy Lau', 'Dr Adrian Longworth', 'Dr Richard Grayson']"
DB Dental Spearwood,not available,not available,not available,not available,not available,not available,http://www.dbdental.com.au,"['Dr Ailsa Malone', 'Dr Ashok Patel', 'Dr Cherrin Cheong', 'Dr Nancy Sehgal', 'Dr Greg Herbert', 'Dr Rob Grundy', 'Dr Sheema Pham', 'Dr Esther McCorry', 'Dr Mihajlo Kostadinovic']"
DB Dental Rockingham,not available,not available,not available,not available,not available,not available,http://www.dbdental.com.au,"['Dr Sean Cunningham', 'Dr Alex Poli', 'Dr Claire Arkle', 'Dr Chris Tay', 'Dr Subha Karunanayaka', 'Dr Kiranbir Kaur']"
DB Dental North Fremantle,not available,not available,not available,not available,not available,not available,http://www.dbdental.com.au,"['Dr Suhail Wardak', 'Dr Rob Grundy', 'Dr Chandi Shah', 'Dr Ailsa Malone', 'Dr Daniel Bontempo']"
Hastings Dental Centre,Scarborough Beach Medical Centre / 37 Scarborough Beach Rd,Scarborough,WA,6019,893411022,893418101,http://www.scarboroughbeachdentist.com.au,['Dr Colin Linforth']
Floreat Dental Surgery,24 Floreat Avenue,Floreat,WA,6014,893837711,Not Available,https://floreat-dental-surgery.business.site/,"['Dr Stefan Kolm', 'Dr Bhavnik Shah']"
Brighton Beach Dental,Unit 1 / 22 Hughie Edwards Drive,Merriwa,WA,6030,893051902,893051904,http://www.brightonbeachdental.com.au,"['Dr Richard Slattery', 'Dr Estelle Swart', 'Dr Carika Rossouw', 'Dr Stephanie Kong']"
Anchorage Dental Care,Unit 1 / 6 Rothesay Heights,Mindarie,WA,6030,08 9407 7888,08 9407 8055,http://www.AnchorageDental.com.au,"['Dr Frank Farhadi', 'Dr Michael Shams']"
South Street Dental Centre,South Street Dental / Fremantle Implants,O'Connor,WA,6163,893377388,Not Available,http://southstdental.com.au,"['Dr Michael Ang', 'Dr Henry Chan', 'Dr Te Saw']"
Marmion Dental Care,5 / 11 Sheppard Way,Marmion,WA,6020,894485577,894480551,http://www.marmiondentalcare.com.au,"['Dr Paul Chung', 'Dr Min Kyu Sung']"
Safety Bay Dental Care Centre,90 Parkin Street,Rockingham,WA,6168,895922077,895928078,http://www.safetybaydental.com.au,"['Dr Jeremy Lau', 'Dr Adrian Longworth', 'Dr Richard Grayson']"
DB Dental Spearwood,not available,not available,not available,not available,not available,not available,http://www.dbdental.com.au,"['Dr Ailsa Malone', 'Dr Ashok Patel', 'Dr Cherrin Cheong', 'Dr Nancy Sehgal', 'Dr Greg Herbert', 'Dr Rob Grundy', 'Dr Sheema Pham', 'Dr Esther McCorry', 'Dr Mihajlo Kostadinovic']"
DB Dental Rockingham,not available,not available,not available,not available,not available,not available,http://www.dbdental.com.au,"['Dr Sean Cunningham', 'Dr Alex Poli', 'Dr Claire Arkle', 'Dr Chris Tay', 'Dr Subha Karunanayaka', 'Dr Kiranbir Kaur']"
DB Dental North Fremantle,not available,not available,not available,not available,not available,not available,http://www.dbdental.com.au,"['Dr Suhail Wardak', 'Dr Rob Grundy', 'Dr Chandi Shah', 'Dr Ailsa Malone', 'Dr Daniel Bontempo']"
DB Dental Melville,not available,not available,not available,not available,not available,not available,http://www.dbdental.com.au,"['Dr Nilesh Jadav', 'Dr Nicholas Morton', 'Dr Susmita Pachipala', 'Dr Paul Haswell', 'Dr Alex Poli', 'Dr Jake Stanley']"
DB Dental Mandurah,not available,not available,not available,not available,not available,not available,http://www.dbdental.com.au,"['Dr Marek Deptula', 'Dr Jason Law', 'Dr Steve Common', 'Dr Tom Peacock', 'Dr Kiranbir Kaur', 'Dr Subha Karunanayaka', 'Dr Greg Herbert', 'Dr Ananth Kadekodi', 'Dr Neeharika Boorada', 'Dr Adam Russell']"
DB Dental Joondalup,not available,not available,not available,not available,not available,not available,http://www.dbdental.com.au,"['Dr Caroline Kowalski Cruden', 'Dr Sarah Chia', 'Dr Thao Truong', 'Dr Maki Kidokoro', 'Dr Billy Kim', 'Dr Jonathan Lee', 'Dr Hemesh Shelat', 'Dr Robert Tyrrell', 'Dr Gurpreet Virdee', 'Dr Suhail Wardak', 'Dr Kalen White']"
DB Dental Craigie,not available,not available,not available,not available,not available,not available,http://www.dbdental.com.au,"['Dr Esther McCorry', 'Dr Jeremy Booth', 'Dr Roslind George', 'Dr Prashil Parekh', 'Dr Suhail Wardak', 'Dr John Graham']"
DB Dental Claremont,not available,not available,not available,not available,not available,not available,http://www.dbdental.com.au,"['Dr Lisa Tong', 'Dr Rohit Chaturvedi', 'Dr Robert Tyrrell', 'Dr Daniel Bontempo', 'Dr Brendtha Nandakumar']"
DB Dental Baldivis,not available,not available,not available,not available,not available,not available,http://www.dbdental.com.au,"['Dr Kathy Yu', 'Dr Manoj Pallegedara', 'Dr Pak Poon', 'Dr Jennifer Udeen', 'Dr Meera Amin', 'Dr Ailsa Malone', 'Dr Kiranbir Kaur', 'Dr Subha Karunanayaka', 'Dr Jonathan Lee', 'Dr Shanash Bishnulall', 'Dr Shona Smith']"
Southern Dental Care Smile by Design Mandurah,Southern Specialist Centre,Greenfields,WA,6210,895815344,895815305,http://www.southerndentalcare.com.au,['Dr Daniel Chan']
Phoenix Road Dental Surgery,Unit 4 / 223 Rockingham Road,Spearwood,WA,6163,894341235,Not Available,http://www.phoenixroaddental.com.au,"['Dr Michael Fong', 'Dr Sarah Chong', 'Dr Kathryn Fong']"
Scarborough Beach Dental Clinic,44 Scarborough Beach Road,Scarborough,WA,6019,893417898,434775129,http://www.scarboroughdental.com.au/,"['Dr Cheryl Tan', 'Dr Raphaela Varajao', 'Dr Crystal Lau', 'Dr Josephine Drewett']"
Council Avenue Dental & Implant Centre,Unit 4 / 31 Council Avenue,Rockingham,WA,6168,895922210,895286026,http://www.councilavenuedental.com.au,"['Dr Eu Guan Koh', 'Dr James Wong', 'Dr Alex Ong']"
DB Dental Melville,not available,not available,not available,not available,not available,not available,http://www.dbdental.com.au,"['Dr Nilesh Jadav', 'Dr Nicholas Morton', 'Dr Susmita Pachipala', 'Dr Paul Haswell', 'Dr Alex Poli', 'Dr Jake Stanley']"
DB Dental Mandurah,not available,not available,not available,not available,not available,not available,http://www.dbdental.com.au,"['Dr Marek Deptula', 'Dr Jason Law', 'Dr Steve Common', 'Dr Tom Peacock', 'Dr Kiranbir Kaur', 'Dr Subha Karunanayaka', 'Dr Greg Herbert', 'Dr Ananth Kadekodi', 'Dr Neeharika Boorada', 'Dr Adam Russell']"
DB Dental Joondalup,not available,not available,not available,not available,not available,not available,http://www.dbdental.com.au,"['Dr Caroline Kowalski Cruden', 'Dr Sarah Chia', 'Dr Thao Truong', 'Dr Maki Kidokoro', 'Dr Billy Kim', 'Dr Jonathan Lee', 'Dr Hemesh Shelat', 'Dr Robert Tyrrell', 'Dr Gurpreet Virdee', 'Dr Suhail Wardak', 'Dr Kalen White']"
DB Dental Craigie,not available,not available,not available,not available,not available,not available,http://www.dbdental.com.au,"['Dr Esther McCorry', 'Dr Jeremy Booth', 'Dr Roslind George', 'Dr Prashil Parekh', 'Dr Suhail Wardak', 'Dr John Graham']"
DB Dental Claremont,not available,not available,not available,not available,not available,not available,http://www.dbdental.com.au,"['Dr Lisa Tong', 'Dr Rohit Chaturvedi', 'Dr Robert Tyrrell', 'Dr Daniel Bontempo', 'Dr Brendtha Nandakumar']"
DB Dental Baldivis,not available,not available,not available,not available,not available,not available,http://www.dbdental.com.au,"['Dr Kathy Yu', 'Dr Manoj Pallegedara', 'Dr Pak Poon', 'Dr Jennifer Udeen', 'Dr Meera Amin', 'Dr Ailsa Malone', 'Dr Kiranbir Kaur', 'Dr Subha Karunanayaka', 'Dr Jonathan Lee', 'Dr Shanash Bishnulall', 'Dr Shona Smith']"
Southern Dental Care Smile by Design Mandurah,Southern Specialist Centre,Greenfields,WA,6210,895815344,895815305,http://www.southerndentalcare.com.au,['Dr Daniel Chan']
Phoenix Road Dental Surgery,Unit 4 / 223 Rockingham Road,Spearwood,WA,6163,894341235,Not Available,http://www.phoenixroaddental.com.au,"['Dr Michael Fong', 'Dr Sarah Chong', 'Dr Kathryn Fong']"
Scarborough Beach Dental Clinic,44 Scarborough Beach Road,Scarborough,WA,6019,893417898,434775129,http://www.scarboroughdental.com.au/,"['Dr Cheryl Tan', 'Dr Raphaela Varajao', 'Dr Crystal Lau', 'Dr Josephine Drewett']"
Council Avenue Dental & Implant Centre,Unit 4 / 31 Council Avenue,Rockingham,WA,6168,895922210,895286026,http://www.councilavenuedental.com.au,"['Dr Eu Guan Koh', 'Dr James Wong', 'Dr Alex Ong']"
Mindarie Quinns Dental Centre,Suite 3 / 10 Cnr Quinns Road & Mindarie Drive,Rocks,WA,6030,893059990,Not Available,https://www.mindariequinnsdental.com.au,"['Dr Lubinka Mihailova', 'Dr Ashkan Master', 'Dr Zaheer Kadwa', 'Dr Kent Tan']"
Pinjarra Dental,3 / 29 Murray Street,Pinjarra,WA,6208,895311660,Not Available,http://www.pinjarradental.com.au,"['Dr Anjali Saini', 'Dr Christopher Bucktin']"
TLC Dental Chisham Avenue,33 Meares Avenue,Parmelia,WA,6167,894191988,894192910,http://www.tlc-dental.com.au,"['Dr Anthony Giummarra', 'Dr James Monk']"
TLC Dental Mandurah North,137 Mandurah Terrace,Mandurah,WA,6210,08 9535 1735,08 9535 1401,http://www.tlc-dental.com.au,"['Dr Simeon Hunter', 'Dr Anchalee Jennings-Lowe', 'Dr Ellen Longman', 'Dr Charles Love', 'Dr Natasha Mahiepala', 'Dr Emily Milligan']"
Hillarys Beach Dental Centre,Hillarys Shopping Centre,Hillarys,WA,6025,894036400,894036500,http://www.hillarysbeachdental.com.au,"['Dr Stephen Hollander', 'Dr Andrew Heap', 'Dr Unna Chidambaram', 'Dr Deanne Annastasas', 'Dr Rafaela Rogers', 'Dr Michael Fong']"
Western Dental Fremantle,Ground Floor / 15 Adelaide Street,Fremantle,WA,6160,893359166,894304517,http://westerndental.net.au,"['Dr Borut Klopcic', 'Dr Suzanne Nguyen', 'Dr John Payne']"
Eaton Dental Centre,4 Cassowary Bend,Eaton,WA,6232,897250844,Not Available,https://www.eatondental.com.au,"['Dr Ramaprasad Natarajan', 'Dr Julian Painter']"
Duncraig Dental Care,Duncraig Shopping Centre,Duncraig,WA,6023,894483111,892431890,https://duncraigdentalcare.com.au,['Dr Haytham Barr']
Doubleview Dental Clinic,184 Scarborough Beach Rd,Doubleview,WA,6018,894461344,892442262,http://www.dentistperth.com,"['Dr Tim Clair', 'Dr Michael Khoury', 'Dr Jason La', 'Dr Jessica Quach', 'Dr John Moran']"
Dalkeith Dental,Suite 16 / 81 Waratah Avenue,Dalkeith,WA,6009,893863437,Not Available,https://www.dalkeithdental.com.au,"['Dr Jeremy Gray', 'Dr Ian Barcham']"
Mindarie Quinns Dental Centre,Suite 3 / 10 Cnr Quinns Road & Mindarie Drive,Rocks,WA,6030,893059990,Not Available,https://www.mindariequinnsdental.com.au,"['Dr Lubinka Mihailova', 'Dr Ashkan Master', 'Dr Zaheer Kadwa', 'Dr Kent Tan']"
Pinjarra Dental,3 / 29 Murray Street,Pinjarra,WA,6208,895311660,Not Available,http://www.pinjarradental.com.au,"['Dr Anjali Saini', 'Dr Christopher Bucktin']"
TLC Dental Chisham Avenue,33 Meares Avenue,Parmelia,WA,6167,894191988,894192910,http://www.tlc-dental.com.au,"['Dr Anthony Giummarra', 'Dr James Monk']"
TLC Dental Mandurah North,137 Mandurah Terrace,Mandurah,WA,6210,08 9535 1735,08 9535 1401,http://www.tlc-dental.com.au,"['Dr Simeon Hunter', 'Dr Anchalee Jennings-Lowe', 'Dr Ellen Longman', 'Dr Charles Love', 'Dr Natasha Mahiepala', 'Dr Emily Milligan']"
Hillarys Beach Dental Centre,Hillarys Shopping Centre,Hillarys,WA,6025,894036400,894036500,http://www.hillarysbeachdental.com.au,"['Dr Stephen Hollander', 'Dr Andrew Heap', 'Dr Unna Chidambaram', 'Dr Deanne Annastasas', 'Dr Rafaela Rogers', 'Dr Michael Fong']"
Western Dental Fremantle,Ground Floor / 15 Adelaide Street,Fremantle,WA,6160,893359166,894304517,http://westerndental.net.au,"['Dr Borut Klopcic', 'Dr Suzanne Nguyen', 'Dr John Payne']"
Eaton Dental Centre,4 Cassowary Bend,Eaton,WA,6232,897250844,Not Available,https://www.eatondental.com.au,"['Dr Ramaprasad Natarajan', 'Dr Julian Painter']"
Duncraig Dental Care,Duncraig Shopping Centre,Duncraig,WA,6023,894483111,892431890,https://duncraigdentalcare.com.au,['Dr Haytham Barr']
Doubleview Dental Clinic,184 Scarborough Beach Rd,Doubleview,WA,6018,894461344,892442262,http://www.dentistperth.com,"['Dr Tim Clair', 'Dr Michael Khoury', 'Dr Jason La', 'Dr Jessica Quach', 'Dr John Moran']"
Dalkeith Dental,Suite 16 / 81 Waratah Avenue,Dalkeith,WA,6009,893863437,Not Available,https://www.dalkeithdental.com.au,"['Dr Jeremy Gray', 'Dr Ian Barcham']"
Cottesloe Dental,478 Stirling Highway,Cottesloe,WA,6011,893841644,893841617,http://www.cottesloedental.com.au,"['Dr Luke Rodman', ""Dr Colin O'Brien"", 'Dr Charles Cardoso', 'Dr Phillip Keenan', 'Dr Joshua Graieg', 'Dr Mo Haggag', 'Dr Ellie Amiri']"
Connolly Dental,Connolly Shopping Centre,Connolly,WA,6027,893001122,Not Available,https://www.connollydental.com.au,"['Dr Eva Kierath', 'Dr Meike Stewart']"
Clarkson North Dental Care,Commercial Centre,Clarkson,WA,6030,893046624,893046515,https://www.clarksonnorthdentalcare.com/,"['Dr Julie Heyes', 'Dr Diana Simmons', 'Dr Keith Sutton', 'Dr Ying Tan']"
Keys Dental,Unit 16 / 61 Key Largo Drive,Clarkson,WA,6030,894077088,Not Available,https://www.keysdental.com.au/,"['Dr Sam Eldiry', 'Dr Rosalie Harrington', 'Dr Senthil Nathan', 'Dr Reza Shah Mansouri', 'Dr Ananth Kadekodi', 'Dr Linh Truong']"
Bayview Dental Claremont,1 / 324 Stirling Hwy,Claremont,WA,6010,892842995,892844986,http://www.bayviewdental.com.au,"['Dr Akhil Chandra', 'Dr Parsa Partovi']"
Ashton Avenue Dental,2 Ashton Avenue,Claremont,WA,6010,893856677,893855530,http://www.ashtonavenuedental.com.au,"['Dr Nishant Vaishnav', 'Dr Harshada Vaishnav']"
Doyles Dental,33 Spencer Street,Bunbury,WA,6230,897212045,897914362,http://www.mybunburydentist.com.au,['Dr Jigisha Shah']
The Tooth Clinic,261 South St,Beaconsfield,WA,6162,894309288,Not Available,http://www.toothclinic.com.au,"['Dr Adeline Teh', 'Dr Lani Aulsebrook']"
Superior Smiles,78 Stirling Hwy,Fremantle,WA,6159,892546510,Not Available,http://www.superiorsmiles.com.au,"['Dr Isaac Seguya', 'Dr Beth Davis', 'Dr Syed Fasial', 'Dr Rani Gopal']"
SKG Radiology Bunbury,55 Spencer Street,Bunbury,WA,6230,897223200,897215385,http://www.skg.com.au,not available
Cottesloe Dental,478 Stirling Highway,Cottesloe,WA,6011,893841644,893841617,http://www.cottesloedental.com.au,"['Dr Luke Rodman', ""Dr Colin O'Brien"", 'Dr Charles Cardoso', 'Dr Phillip Keenan', 'Dr Joshua Graieg', 'Dr Mo Haggag', 'Dr Ellie Amiri']"
Connolly Dental,Connolly Shopping Centre,Connolly,WA,6027,893001122,Not Available,https://www.connollydental.com.au,"['Dr Eva Kierath', 'Dr Meike Stewart']"
Clarkson North Dental Care,Commercial Centre,Clarkson,WA,6030,893046624,893046515,https://www.clarksonnorthdentalcare.com/,"['Dr Julie Heyes', 'Dr Diana Simmons', 'Dr Keith Sutton', 'Dr Ying Tan']"
Keys Dental,Unit 16 / 61 Key Largo Drive,Clarkson,WA,6030,894077088,Not Available,https://www.keysdental.com.au/,"['Dr Sam Eldiry', 'Dr Rosalie Harrington', 'Dr Senthil Nathan', 'Dr Reza Shah Mansouri', 'Dr Ananth Kadekodi', 'Dr Linh Truong']"
Bayview Dental Claremont,1 / 324 Stirling Hwy,Claremont,WA,6010,892842995,892844986,http://www.bayviewdental.com.au,"['Dr Akhil Chandra', 'Dr Parsa Partovi']"
Ashton Avenue Dental,2 Ashton Avenue,Claremont,WA,6010,893856677,893855530,http://www.ashtonavenuedental.com.au,"['Dr Nishant Vaishnav', 'Dr Harshada Vaishnav']"
Doyles Dental,33 Spencer Street,Bunbury,WA,6230,897212045,897914362,http://www.mybunburydentist.com.au,['Dr Jigisha Shah']
The Tooth Clinic,261 South St,Beaconsfield,WA,6162,894309288,Not Available,http://www.toothclinic.com.au,"['Dr Adeline Teh', 'Dr Lani Aulsebrook']"
Superior Smiles,78 Stirling Hwy,Fremantle,WA,6159,892546510,Not Available,http://www.superiorsmiles.com.au,"['Dr Isaac Seguya', 'Dr Beth Davis', 'Dr Syed Fasial', 'Dr Rani Gopal']"
SKG Radiology Bunbury,55 Spencer Street,Bunbury,WA,6230,897223200,897215385,http://www.skg.com.au,not available
Cottesloe Dental,478 Stirling Highway,Cottesloe,WA,6011,893841644,893841617,http://www.cottesloedental.com.au,"['Dr Luke Rodman', ""Dr Colin O'Brien"", 'Dr Charles Cardoso', 'Dr Phillip Keenan', 'Dr Joshua Graieg', 'Dr Mo Haggag', 'Dr Ellie Amiri']"
Connolly Dental,Connolly Shopping Centre,Connolly,WA,6027,893001122,Not Available,https://www.connollydental.com.au,"['Dr Eva Kierath', 'Dr Meike Stewart']"
Clarkson North Dental Care,Commercial Centre,Clarkson,WA,6030,893046624,893046515,https://www.clarksonnorthdentalcare.com/,"['Dr Julie Heyes', 'Dr Diana Simmons', 'Dr Keith Sutton', 'Dr Ying Tan']"
Keys Dental,Unit 16 / 61 Key Largo Drive,Clarkson,WA,6030,894077088,Not Available,https://www.keysdental.com.au/,"['Dr Sam Eldiry', 'Dr Rosalie Harrington', 'Dr Senthil Nathan', 'Dr Reza Shah Mansouri', 'Dr Ananth Kadekodi', 'Dr Linh Truong']"
Bayview Dental Claremont,1 / 324 Stirling Hwy,Claremont,WA,6010,892842995,892844986,http://www.bayviewdental.com.au,"['Dr Akhil Chandra', 'Dr Parsa Partovi']"
Ashton Avenue Dental,2 Ashton Avenue,Claremont,WA,6010,893856677,893855530,http://www.ashtonavenuedental.com.au,"['Dr Nishant Vaishnav', 'Dr Harshada Vaishnav']"
Doyles Dental,33 Spencer Street,Bunbury,WA,6230,897212045,897914362,http://www.mybunburydentist.com.au,['Dr Jigisha Shah']
The Tooth Clinic,261 South St,Beaconsfield,WA,6162,894309288,Not Available,http://www.toothclinic.com.au,"['Dr Adeline Teh', 'Dr Lani Aulsebrook']"
Superior Smiles,78 Stirling Hwy,Fremantle,WA,6159,892546510,Not Available,http://www.superiorsmiles.com.au,"['Dr Isaac Seguya', 'Dr Beth Davis', 'Dr Syed Fasial', 'Dr Rani Gopal']"
SKG Radiology Bunbury,55 Spencer Street,Bunbury,WA,6230,897223200,897215385,http://www.skg.com.au,not available
SKG Radiology Mandurah,160 Pinjarra Road,Mandurah,WA,6210,895824500,895348502,http://www.skg.com.au,not available
SKG Radiology Fremantle,201 High Street,Fremantle,WA,6160,894359500,894306693,http://www.skg.com.au,not available
SKG Radiology Rockingham,8B Leach Crescent,Rockingham,WA,6168,895270000,895925097,http://www.skg.com.au,not available
SKG Radiology Currambine,1 / 1 Hobsons Gate,Currambine,WA,6028,893017000,893040387,www.skg.com.au,not available
My Implant Dentist Warwick,8A / 639 Beach Road,Warwick,WA,6024,08 9361 5544,Not Available,http://www.myimplantdentist.com.au,"['Dr Zaheer Kadwa', 'Dr Kent Tan']"
Booragoon Family Dental Centre,Booragoon Family Dental Centre,Booragoon,WA,6154,862442288,Not Available,http://www.booragoonfamilydental.com.au,"['Dr Trevor Allen', 'Dr Lisa Staer']"
Dentist@Manning,Suite 11,Manning,WA,6152,861161700,Not Available,http://www.dentistatmanning.com.au/,['Dr Mohd Makhdoom']
Ivory Dental Care,20 Ivory way,Wellard,WA,6170,861186568,861186569,http://www.ivorydentalcare.com.au,"['Dr Santosh Kumari Devata', 'Dr Chandrashekar Siddappa']"
Forrestfield Dentist,Unit 2 / 384 Holmes Road,Forrestfield,WA,6058,863192381,863234699,http://www.forrestfielddentist.com,"['Dr Praveen Perera', 'Dr Shatha Saleh']"
Yokine Smiles Dental,Dog Swamp Shopping Centre,Yokine,WA,6060,894449444,Not Available,https://www.yokinesmilesdental.com.au,"['Dr Grishma Patel', 'Dr Felix Okomba', 'Dr Peter Sim']"
SKG Radiology Mandurah,160 Pinjarra Road,Mandurah,WA,6210,895824500,895348502,http://www.skg.com.au,not available
SKG Radiology Fremantle,201 High Street,Fremantle,WA,6160,894359500,894306693,http://www.skg.com.au,not available
SKG Radiology Rockingham,8B Leach Crescent,Rockingham,WA,6168,895270000,895925097,http://www.skg.com.au,not available
SKG Radiology Currambine,1 / 1 Hobsons Gate,Currambine,WA,6028,893017000,893040387,www.skg.com.au,not available
My Implant Dentist Warwick,8A / 639 Beach Road,Warwick,WA,6024,08 9361 5544,Not Available,http://www.myimplantdentist.com.au,"['Dr Zaheer Kadwa', 'Dr Kent Tan']"
Booragoon Family Dental Centre,Booragoon Family Dental Centre,Booragoon,WA,6154,862442288,Not Available,http://www.booragoonfamilydental.com.au,"['Dr Trevor Allen', 'Dr Lisa Staer']"
Dentist@Manning,Suite 11,Manning,WA,6152,861161700,Not Available,http://www.dentistatmanning.com.au/,['Dr Mohd Makhdoom']
Ivory Dental Care,20 Ivory way,Wellard,WA,6170,861186568,861186569,http://www.ivorydentalcare.com.au,"['Dr Santosh Kumari Devata', 'Dr Chandrashekar Siddappa']"
Forrestfield Dentist,Unit 2 / 384 Holmes Road,Forrestfield,WA,6058,863192381,863234699,http://www.forrestfielddentist.com,"['Dr Praveen Perera', 'Dr Shatha Saleh']"
Yokine Smiles Dental,Dog Swamp Shopping Centre,Yokine,WA,6060,894449444,Not Available,https://www.yokinesmilesdental.com.au,"['Dr Grishma Patel', 'Dr Felix Okomba', 'Dr Peter Sim']"
SKG Radiology Mandurah,160 Pinjarra Road,Mandurah,WA,6210,895824500,895348502,http://www.skg.com.au,not available
SKG Radiology Fremantle,201 High Street,Fremantle,WA,6160,894359500,894306693,http://www.skg.com.au,not available
SKG Radiology Rockingham,8B Leach Crescent,Rockingham,WA,6168,895270000,895925097,http://www.skg.com.au,not available
SKG Radiology Currambine,1 / 1 Hobsons Gate,Currambine,WA,6028,893017000,893040387,www.skg.com.au,not available
My Implant Dentist Warwick,8A / 639 Beach Road,Warwick,WA,6024,08 9361 5544,Not Available,http://www.myimplantdentist.com.au,"['Dr Zaheer Kadwa', 'Dr Kent Tan']"
Booragoon Family Dental Centre,Booragoon Family Dental Centre,Booragoon,WA,6154,862442288,Not Available,http://www.booragoonfamilydental.com.au,"['Dr Trevor Allen', 'Dr Lisa Staer']"
Dentist@Manning,Suite 11,Manning,WA,6152,861161700,Not Available,http://www.dentistatmanning.com.au/,['Dr Mohd Makhdoom']
Ivory Dental Care,20 Ivory way,Wellard,WA,6170,861186568,861186569,http://www.ivorydentalcare.com.au,"['Dr Santosh Kumari Devata', 'Dr Chandrashekar Siddappa']"
Forrestfield Dentist,Unit 2 / 384 Holmes Road,Forrestfield,WA,6058,863192381,863234699,http://www.forrestfielddentist.com,"['Dr Praveen Perera', 'Dr Shatha Saleh']"
Yokine Smiles Dental,Dog Swamp Shopping Centre,Yokine,WA,6060,894449444,Not Available,https://www.yokinesmilesdental.com.au,"['Dr Grishma Patel', 'Dr Felix Okomba', 'Dr Peter Sim']"
Grandis Dental,3 / 1 Fairywren Street,Grove,WA,6031,864042899,Not Available,https://www.grandisdental.com.au,['Dr Gretchen Priest']
Go Smiles Dental Studio,Westfield Carousel Shopping Centre,Cannington,WA,6107,861076750,Not Available,http://www.gosmilesdental.com.au,"['Dr Anjali Saini', 'Dr Gurpreet Kour', 'Dr Praveen Ayethepalle', 'Dr Rinu Williams', 'Dr Anand Ponnusamy', 'Dr Sonal Wadhwa']"
Bullsbrook Dental Centre,49 Kimberley Street,Bullsbrook,WA,6084,895200313,Not Available,http://www.bullsbrookdental.com.au,"['Dr Tanjum Sethi', 'Dr Rony Gandhi', 'Dr Grishma Patel', 'Dr Silas Prashant', 'Dr Vivek Alagathi', 'Dr Praveen Kumar Ayethepalle']"
Riseley Street Dental,178 Riseley Street,Booragoon,WA,6154,893162304,Not Available,https://riseleystreetdental.com.au/,"['Dr Gregory Yap', 'Dr Matthew Yoon']"
Manning Dental,11c Welwyn Avenue,Manning,WA,6152,894502073,Not Available,https://www.manningdental.com.au/,['Dr John Cobley']
Dentistry Plus Leederville,2 / 628 – 630 Newcastle Street,Leederville,WA,6007,861475099,Not Available,http://www.dentistryplus.com.au,['Dr Kabir Ally']
Midland Dental Centre,2 Old Great Northern Highway,Midland,WA,6056,892744195,Not Available,http://www.midlanddental.com.au,"['Dr Michelle Tien', 'Dr Matthew Ho', 'Dr Stephen Doyle', 'Dr Jacinta Peachey']"
Dr Teeth Dental Care,Midland Gate Shopping Centre,Midland,WA,6056,861157020,Not Available,https://www.drteethdental.com.au,"['Dr Ramandeep Kaur', 'Dr Anand Ponnusamy', 'Dr Gurpreet Kour', 'Dr Akanksha Dalwadi', 'Dr Preetinder Kaur Sidhu', 'Dr Praveen Ayethepalle', 'Dr Herath Praveen Perera', 'Dr Sonal Wadhwa']"
PK Dental Kalamunda,PK Dental Kalamunda- Inside Kalamunda GP Super Clinic,Kalamunda,WA,6076,863232979,Not Available,http://www.pkdental.com.au,"['Dr Peter Terzi', 'Dr Jessica Chong']"
Elysian Dental,Armadale Shopping City,Armadale,WA,6112,863962116,Not Available,https://elysiandental.com.au,"['Dr Emrik Graff', 'Dr Domonique Burgess']"
Grandis Dental,3 / 1 Fairywren Street,Grove,WA,6031,864042899,Not Available,https://www.grandisdental.com.au,['Dr Gretchen Priest']
Go Smiles Dental Studio,Westfield Carousel Shopping Centre,Cannington,WA,6107,861076750,Not Available,http://www.gosmilesdental.com.au,"['Dr Anjali Saini', 'Dr Gurpreet Kour', 'Dr Praveen Ayethepalle', 'Dr Rinu Williams', 'Dr Anand Ponnusamy', 'Dr Sonal Wadhwa']"
Bullsbrook Dental Centre,49 Kimberley Street,Bullsbrook,WA,6084,895200313,Not Available,http://www.bullsbrookdental.com.au,"['Dr Tanjum Sethi', 'Dr Rony Gandhi', 'Dr Grishma Patel', 'Dr Silas Prashant', 'Dr Vivek Alagathi', 'Dr Praveen Kumar Ayethepalle']"
Riseley Street Dental,178 Riseley Street,Booragoon,WA,6154,893162304,Not Available,https://riseleystreetdental.com.au/,"['Dr Gregory Yap', 'Dr Matthew Yoon']"
Manning Dental,11c Welwyn Avenue,Manning,WA,6152,894502073,Not Available,https://www.manningdental.com.au/,['Dr John Cobley']
Dentistry Plus Leederville,2 / 628 – 630 Newcastle Street,Leederville,WA,6007,861475099,Not Available,http://www.dentistryplus.com.au,['Dr Kabir Ally']
Midland Dental Centre,2 Old Great Northern Highway,Midland,WA,6056,892744195,Not Available,http://www.midlanddental.com.au,"['Dr Michelle Tien', 'Dr Matthew Ho', 'Dr Stephen Doyle', 'Dr Jacinta Peachey']"
Dr Teeth Dental Care,Midland Gate Shopping Centre,Midland,WA,6056,861157020,Not Available,https://www.drteethdental.com.au,"['Dr Ramandeep Kaur', 'Dr Anand Ponnusamy', 'Dr Gurpreet Kour', 'Dr Akanksha Dalwadi', 'Dr Preetinder Kaur Sidhu', 'Dr Praveen Ayethepalle', 'Dr Herath Praveen Perera', 'Dr Sonal Wadhwa']"
PK Dental Kalamunda,PK Dental Kalamunda- Inside Kalamunda GP Super Clinic,Kalamunda,WA,6076,863232979,Not Available,http://www.pkdental.com.au,"['Dr Peter Terzi', 'Dr Jessica Chong']"
Elysian Dental,Armadale Shopping City,Armadale,WA,6112,863962116,Not Available,https://elysiandental.com.au,"['Dr Emrik Graff', 'Dr Domonique Burgess']"
Grandis Dental,3 / 1 Fairywren Street,Grove,WA,6031,864042899,Not Available,https://www.grandisdental.com.au,['Dr Gretchen Priest']
Go Smiles Dental Studio,Westfield Carousel Shopping Centre,Cannington,WA,6107,861076750,Not Available,http://www.gosmilesdental.com.au,"['Dr Anjali Saini', 'Dr Gurpreet Kour', 'Dr Praveen Ayethepalle', 'Dr Rinu Williams', 'Dr Anand Ponnusamy', 'Dr Sonal Wadhwa']"
Bullsbrook Dental Centre,49 Kimberley Street,Bullsbrook,WA,6084,895200313,Not Available,http://www.bullsbrookdental.com.au,"['Dr Tanjum Sethi', 'Dr Rony Gandhi', 'Dr Grishma Patel', 'Dr Silas Prashant', 'Dr Vivek Alagathi', 'Dr Praveen Kumar Ayethepalle']"
Riseley Street Dental,178 Riseley Street,Booragoon,WA,6154,893162304,Not Available,https://riseleystreetdental.com.au/,"['Dr Gregory Yap', 'Dr Matthew Yoon']"
Manning Dental,11c Welwyn Avenue,Manning,WA,6152,894502073,Not Available,https://www.manningdental.com.au/,['Dr John Cobley']
Dentistry Plus Leederville,2 / 628 – 630 Newcastle Street,Leederville,WA,6007,861475099,Not Available,http://www.dentistryplus.com.au,['Dr Kabir Ally']
Midland Dental Centre,2 Old Great Northern Highway,Midland,WA,6056,892744195,Not Available,http://www.midlanddental.com.au,"['Dr Michelle Tien', 'Dr Matthew Ho', 'Dr Stephen Doyle', 'Dr Jacinta Peachey']"
Dr Teeth Dental Care,Midland Gate Shopping Centre,Midland,WA,6056,861157020,Not Available,https://www.drteethdental.com.au,"['Dr Ramandeep Kaur', 'Dr Anand Ponnusamy', 'Dr Gurpreet Kour', 'Dr Akanksha Dalwadi', 'Dr Preetinder Kaur Sidhu', 'Dr Praveen Ayethepalle', 'Dr Herath Praveen Perera', 'Dr Sonal Wadhwa']"
PK Dental Kalamunda,PK Dental Kalamunda- Inside Kalamunda GP Super Clinic,Kalamunda,WA,6076,863232979,Not Available,http://www.pkdental.com.au,"['Dr Peter Terzi', 'Dr Jessica Chong']"
Elysian Dental,Armadale Shopping City,Armadale,WA,6112,863962116,Not Available,https://elysiandental.com.au,"['Dr Emrik Graff', 'Dr Domonique Burgess']"
Guildford Dental Centre,Unit 6 / 9 Waterhall Road,Guildford,WA,6055,861040370,Not Available,https://www.guildforddentalcentre.com.au/,"['Dr Rony Gandhi', 'Dr Gaurav Khatri', 'Dr Naish Desai', 'Dr Hemanth Suthar']"
Ellen Stirling Dental - Ellenbrook,48 Ellen Stirling Parade,Ellenbrook,WA,6069,861921036,Not Available,https://ellenstirlingdental.com.au/,"['Dr Darren Cai', 'Dr Alan Quan']"
Enso Dental,Grange Building,Perth,WA,6006,863823399,Not Available,https://ensodental.com.au/,"['Dr Ryan Moldrich', 'Dr Michelle Crerie', 'Dr Pasteur Tran']"
South Calley Dental Centre,78 Calley Drive,Leeming,WA,6149,893289693,Not Available,http://www.singsingdental.com.au/,"['Dr Suzanne Leong', 'Dr Sing Sing Teoh', 'Dr Christina Lin', 'Dr Sally Law', 'Dr Paulina Lim']"
Dental Gigi,931 Albany Highway,Park,WA,6101,894703875,402836990,http://www.dentalgigi.com.au,"['Dr Helen Kerr', 'Dr Vish Selvaraj', 'Dr Alex Pham', 'Dr Shatha Saleh', 'Dr Sadha Shiv Gupta', 'Dr David McConnell', 'Dr Benjamin Zhang']"
Jupiter Dental Clinic Byford,not available,not available,not available,not available,not available,not available,http://www.jupiterhealthservices.com.au,['Dr Haytham El-Sakka']
Amore Dental,Unit 3 / 30 Marquis Street,Park,WA,6164,894100777,894101777,https://www.amoredental.com.au,"['Dr Vincenzo Figliomeni', 'Dr Angela Pathmanathan']"
Mia Dental Centre,Drovers Market Place,Wanneroo,WA,6065,892060058,Not Available,https://www.miadentalcentre.com.au/,"['Dr Tisa Kolarov', 'Dr Suliman Siddiqui', 'Dr Tanya Jordaan']"
DB Dental Perth City,3-4 Kings Square,Perth,WA,6000,1300483384,1300483384,http://www.dbdental.com.au,"['Dr Lisa Tong', 'Dr Jonathan Lee', 'Dr John Graham', 'Dr Laura Hall', 'Dr Suhail Wardak']"
Dental Circle,2 West Rd,Bassendean,WA,6054,893793818,Not Available,https://www.dentalcircle.com.au,"['Dr Nafiz Chowdhury', ""Dr Ol'ga Knurova"", 'Dr William Reidy']"
Guildford Dental Centre,Unit 6 / 9 Waterhall Road,Guildford,WA,6055,861040370,Not Available,https://www.guildforddentalcentre.com.au/,"['Dr Rony Gandhi', 'Dr Gaurav Khatri', 'Dr Naish Desai', 'Dr Hemanth Suthar']"
Ellen Stirling Dental - Ellenbrook,48 Ellen Stirling Parade,Ellenbrook,WA,6069,861921036,Not Available,https://ellenstirlingdental.com.au/,"['Dr Darren Cai', 'Dr Alan Quan']"
Enso Dental,Grange Building,Perth,WA,6006,863823399,Not Available,https://ensodental.com.au/,"['Dr Ryan Moldrich', 'Dr Michelle Crerie', 'Dr Pasteur Tran']"
South Calley Dental Centre,78 Calley Drive,Leeming,WA,6149,893289693,Not Available,http://www.singsingdental.com.au/,"['Dr Suzanne Leong', 'Dr Sing Sing Teoh', 'Dr Christina Lin', 'Dr Sally Law', 'Dr Paulina Lim']"
Dental Gigi,931 Albany Highway,Park,WA,6101,894703875,402836990,http://www.dentalgigi.com.au,"['Dr Helen Kerr', 'Dr Vish Selvaraj', 'Dr Alex Pham', 'Dr Shatha Saleh', 'Dr Sadha Shiv Gupta', 'Dr David McConnell', 'Dr Benjamin Zhang']"
Jupiter Dental Clinic Byford,not available,not available,not available,not available,not available,not available,http://www.jupiterhealthservices.com.au,['Dr Haytham El-Sakka']
Amore Dental,Unit 3 / 30 Marquis Street,Park,WA,6164,894100777,894101777,https://www.amoredental.com.au,"['Dr Vincenzo Figliomeni', 'Dr Angela Pathmanathan']"
Mia Dental Centre,Drovers Market Place,Wanneroo,WA,6065,892060058,Not Available,https://www.miadentalcentre.com.au/,"['Dr Tisa Kolarov', 'Dr Suliman Siddiqui', 'Dr Tanya Jordaan']"
DB Dental Perth City,3-4 Kings Square,Perth,WA,6000,1300483384,1300483384,http://www.dbdental.com.au,"['Dr Lisa Tong', 'Dr Jonathan Lee', 'Dr John Graham', 'Dr Laura Hall', 'Dr Suhail Wardak']"
Dental Circle,2 West Rd,Bassendean,WA,6054,893793818,Not Available,https://www.dentalcircle.com.au,"['Dr Nafiz Chowdhury', ""Dr Ol'ga Knurova"", 'Dr William Reidy']"
Guildford Dental Centre,Unit 6 / 9 Waterhall Road,Guildford,WA,6055,861040370,Not Available,https://www.guildforddentalcentre.com.au/,"['Dr Rony Gandhi', 'Dr Gaurav Khatri', 'Dr Naish Desai', 'Dr Hemanth Suthar']"
Ellen Stirling Dental - Ellenbrook,48 Ellen Stirling Parade,Ellenbrook,WA,6069,861921036,Not Available,https://ellenstirlingdental.com.au/,"['Dr Darren Cai', 'Dr Alan Quan']"
Enso Dental,Grange Building,Perth,WA,6006,863823399,Not Available,https://ensodental.com.au/,"['Dr Ryan Moldrich', 'Dr Michelle Crerie', 'Dr Pasteur Tran']"
South Calley Dental Centre,78 Calley Drive,Leeming,WA,6149,893289693,Not Available,http://www.singsingdental.com.au/,"['Dr Suzanne Leong', 'Dr Sing Sing Teoh', 'Dr Christina Lin', 'Dr Sally Law', 'Dr Paulina Lim']"
Dental Gigi,931 Albany Highway,Park,WA,6101,894703875,402836990,http://www.dentalgigi.com.au,"['Dr Helen Kerr', 'Dr Vish Selvaraj', 'Dr Alex Pham', 'Dr Shatha Saleh', 'Dr Sadha Shiv Gupta', 'Dr David McConnell', 'Dr Benjamin Zhang']"
Jupiter Dental Clinic Byford,not available,not available,not available,not available,not available,not available,http://www.jupiterhealthservices.com.au,['Dr Haytham El-Sakka']
Amore Dental,Unit 3 / 30 Marquis Street,Park,WA,6164,894100777,894101777,https://www.amoredental.com.au,"['Dr Vincenzo Figliomeni', 'Dr Angela Pathmanathan']"
Mia Dental Centre,Drovers Market Place,Wanneroo,WA,6065,892060058,Not Available,https://www.miadentalcentre.com.au/,"['Dr Tisa Kolarov', 'Dr Suliman Siddiqui', 'Dr Tanya Jordaan']"
DB Dental Perth City,3-4 Kings Square,Perth,WA,6000,1300483384,1300483384,http://www.dbdental.com.au,"['Dr Lisa Tong', 'Dr Jonathan Lee', 'Dr John Graham', 'Dr Laura Hall', 'Dr Suhail Wardak']"
Dental Circle,2 West Rd,Bassendean,WA,6054,893793818,Not Available,https://www.dentalcircle.com.au,"['Dr Nafiz Chowdhury', ""Dr Ol'ga Knurova"", 'Dr William Reidy']"
PK Dental Services - Aveley Dental Centre,Shop C1 / 311 Millhouse Road,Aveley,WA,6069,862460144,Not Available,http://www.pkdental.com.au,"['Dr Webson Sibanda', 'Dr Tanjum Sethi', 'Dr Tejas Patel']"
PK Dental Centre - Harrisdale,120 Yellowwood Ave,Harrisdale,WA,6112,861689200,Not Available,http://www.pkdental.com.au,"['Dr Mohammed Yusuf', 'Dr Silas Prashant', 'Dr Rachel Ocampo', 'Dr Praveen Perera', 'Dr Vidya Melmatti', 'Dr Malavika Manikandda']"
Wattle Grove Dental Centre,11B / 338 Hale Road,Grove,WA,6107,894536972,Not Available,http://www.wattlegrovedental.com.au,"['Dr Jessica Chong', 'Dr Silas Prashant', 'Dr Theresa Go', 'Dr Mahmoud Abdel', 'Dr Mohammed Yusuf', 'Dr Saroj Kamble']"
Altone Dental Centre,2 Hull Way,Beechboro,WA,6063,892795300,Not Available,http://www.altonedental.com.au/,"['Dr Deepthy Sapru', 'Dr Silas Prashant', 'Dr Cindy Martin', 'Dr Mahmoud Ahmed', 'Dr Theresa Go', 'Dr Saroj Kamble', 'Dr Peter Terzi', 'Dr Shilpa Datta']"
Bentley Plaza Dental Clinic,FS6B / 1140 Albany Highway,Bentley,WA,6102,894663600,Not Available,http://www.bentleyplazadental.com.au,"['Dr Srikanth Aluru', 'Dr Chetana Parthasarathy']"
Radiant Smiles Dental Care Yokine,198 Wanneroo Rd,Yokine,WA,6060,894403654,Not Available,http://radiantsmiles.com.au,"['Dr Jai Parekh', 'Dr Shalaka Ashtaputre', 'Dr Anand Ponnusamy', 'Dr David Duan']"
Midland Dental Hub,10 / 401 Great Eastern Highway,Midland,WA,6056,861170616,1300735992,https://www.midlanddentalhub.com.au/,"['Dr Troy Ridgwell', 'Dr Lyndon Abreu']"
Banksia Grove Family Dental,Coles Banksia Grove Village,Grove,WA,6031,892069500,Not Available,http://www.banksiagrovedental.com.au,"['Dr Jeni Yuan', 'Dr Juliana Ng', 'Dr Jonathan Lo', 'Dr Adrian Sue', 'Dr Wesley Huupponen']"
Beyond Smiles Dental - Kardinya,State Route 13,Kardinya,WA,6163,893371177,893376566,http://www.beyondsmilesdental.com.au,"['Dr Behnoush Azhang', 'Dr Karthigayan Dorairaj', 'Dr Sarmah Nayeem', 'Dr Chetana Parthasarathy']"
Beyond Smiles Dental - Bertram,4 Hero Cresent,Bertram,WA,6167,894195417,Not Available,http://www.beyondsmilesdental.com.au,"['Dr Manjot Singh', 'Dr Karthik Dorairaj', 'Dr Sarmah Nayeem']"
PK Dental Services - Aveley Dental Centre,Shop C1 / 311 Millhouse Road,Aveley,WA,6069,862460144,Not Available,http://www.pkdental.com.au,"['Dr Webson Sibanda', 'Dr Tanjum Sethi', 'Dr Tejas Patel']"
PK Dental Centre - Harrisdale,120 Yellowwood Ave,Harrisdale,WA,6112,861689200,Not Available,http://www.pkdental.com.au,"['Dr Mohammed Yusuf', 'Dr Silas Prashant', 'Dr Rachel Ocampo', 'Dr Praveen Perera', 'Dr Vidya Melmatti', 'Dr Malavika Manikandda']"
Wattle Grove Dental Centre,11B / 338 Hale Road,Grove,WA,6107,894536972,Not Available,http://www.wattlegrovedental.com.au,"['Dr Jessica Chong', 'Dr Silas Prashant', 'Dr Theresa Go', 'Dr Mahmoud Abdel', 'Dr Mohammed Yusuf', 'Dr Saroj Kamble']"
Altone Dental Centre,2 Hull Way,Beechboro,WA,6063,892795300,Not Available,http://www.altonedental.com.au/,"['Dr Deepthy Sapru', 'Dr Silas Prashant', 'Dr Cindy Martin', 'Dr Mahmoud Ahmed', 'Dr Theresa Go', 'Dr Saroj Kamble', 'Dr Peter Terzi', 'Dr Shilpa Datta']"
Bentley Plaza Dental Clinic,FS6B / 1140 Albany Highway,Bentley,WA,6102,894663600,Not Available,http://www.bentleyplazadental.com.au,"['Dr Srikanth Aluru', 'Dr Chetana Parthasarathy']"
Radiant Smiles Dental Care Yokine,198 Wanneroo Rd,Yokine,WA,6060,894403654,Not Available,http://radiantsmiles.com.au,"['Dr Jai Parekh', 'Dr Shalaka Ashtaputre', 'Dr Anand Ponnusamy', 'Dr David Duan']"
Midland Dental Hub,10 / 401 Great Eastern Highway,Midland,WA,6056,861170616,1300735992,https://www.midlanddentalhub.com.au/,"['Dr Troy Ridgwell', 'Dr Lyndon Abreu']"
Banksia Grove Family Dental,Coles Banksia Grove Village,Grove,WA,6031,892069500,Not Available,http://www.banksiagrovedental.com.au,"['Dr Jeni Yuan', 'Dr Juliana Ng', 'Dr Jonathan Lo', 'Dr Adrian Sue', 'Dr Wesley Huupponen']"
Beyond Smiles Dental - Kardinya,State Route 13,Kardinya,WA,6163,893371177,893376566,http://www.beyondsmilesdental.com.au,"['Dr Behnoush Azhang', 'Dr Karthigayan Dorairaj', 'Dr Sarmah Nayeem', 'Dr Chetana Parthasarathy']"
Beyond Smiles Dental - Bertram,4 Hero Cresent,Bertram,WA,6167,894195417,Not Available,http://www.beyondsmilesdental.com.au,"['Dr Manjot Singh', 'Dr Karthik Dorairaj', 'Dr Sarmah Nayeem']"
PK Dental Services - Aveley Dental Centre,Shop C1 / 311 Millhouse Road,Aveley,WA,6069,862460144,Not Available,http://www.pkdental.com.au,"['Dr Webson Sibanda', 'Dr Tanjum Sethi', 'Dr Tejas Patel']"
PK Dental Centre - Harrisdale,120 Yellowwood Ave,Harrisdale,WA,6112,861689200,Not Available,http://www.pkdental.com.au,"['Dr Mohammed Yusuf', 'Dr Silas Prashant', 'Dr Rachel Ocampo', 'Dr Praveen Perera', 'Dr Vidya Melmatti', 'Dr Malavika Manikandda']"
Wattle Grove Dental Centre,11B / 338 Hale Road,Grove,WA,6107,894536972,Not Available,http://www.wattlegrovedental.com.au,"['Dr Jessica Chong', 'Dr Silas Prashant', 'Dr Theresa Go', 'Dr Mahmoud Abdel', 'Dr Mohammed Yusuf', 'Dr Saroj Kamble']"
Altone Dental Centre,2 Hull Way,Beechboro,WA,6063,892795300,Not Available,http://www.altonedental.com.au/,"['Dr Deepthy Sapru', 'Dr Silas Prashant', 'Dr Cindy Martin', 'Dr Mahmoud Ahmed', 'Dr Theresa Go', 'Dr Saroj Kamble', 'Dr Peter Terzi', 'Dr Shilpa Datta']"
Bentley Plaza Dental Clinic,FS6B / 1140 Albany Highway,Bentley,WA,6102,894663600,Not Available,http://www.bentleyplazadental.com.au,"['Dr Srikanth Aluru', 'Dr Chetana Parthasarathy']"
Radiant Smiles Dental Care Yokine,198 Wanneroo Rd,Yokine,WA,6060,894403654,Not Available,http://radiantsmiles.com.au,"['Dr Jai Parekh', 'Dr Shalaka Ashtaputre', 'Dr Anand Ponnusamy', 'Dr David Duan']"
Midland Dental Hub,10 / 401 Great Eastern Highway,Midland,WA,6056,861170616,1300735992,https://www.midlanddentalhub.com.au/,"['Dr Troy Ridgwell', 'Dr Lyndon Abreu']"
Banksia Grove Family Dental,Coles Banksia Grove Village,Grove,WA,6031,892069500,Not Available,http://www.banksiagrovedental.com.au,"['Dr Jeni Yuan', 'Dr Juliana Ng', 'Dr Jonathan Lo', 'Dr Adrian Sue', 'Dr Wesley Huupponen']"
Beyond Smiles Dental - Kardinya,State Route 13,Kardinya,WA,6163,893371177,893376566,http://www.beyondsmilesdental.com.au,"['Dr Behnoush Azhang', 'Dr Karthigayan Dorairaj', 'Dr Sarmah Nayeem', 'Dr Chetana Parthasarathy']"
Beyond Smiles Dental - Bertram,4 Hero Cresent,Bertram,WA,6167,894195417,Not Available,http://www.beyondsmilesdental.com.au,"['Dr Manjot Singh', 'Dr Karthik Dorairaj', 'Dr Sarmah Nayeem']"
Tee Family Dental,Unit 6 / 2 Wade Court,Girrawheen,WA,6064,893426622,Not Available,https://www.teefamilydental.com,['Dr Simon Tee']
Perth Dental Rooms (previously Carillon City Dental),Wentworth Building,Perth,WA,6000,893225340,Not Available,https://perthdentalrooms.com.au/,"['Dr Thomas Flanagan', 'Dr David Hurst', 'Dr Melanie Fowler']"
St John Dental Joondalup (Previously Apollo Dental),Joondalup Gate,Joondalup,WA,6027,894007050,894007077,http://www.stjohnhealth.com.au,"['Dr Tina Oosthuizen', 'Dr Marcus Choy', 'Dr Jack Chan', 'Dr Yvonne Tang', 'Dr Yamuna Shivananda']"
DB Dental Ellenbrook,Unit 3 / 1549 Gnangara Road,Aveley,WA,6069,1300483384,1300483384,http://www.dbdental.com.au,"['Dr James Andrews', 'Dr Kieran Brannigan', 'Dr Jake Stanley', 'Dr Rebecca Kirke', 'Dr Gurpreet Virdee', 'Dr Kalen White', 'Dr Brian Shih', 'Dr Adam Fell', 'Dr Shane Barton']"
Herald Avenue Dental Centre,7 Herald Avenue,Willetton,WA,6155,892595774,892596384,https://www.heraldavedental.com.au,"['Dr Sambavi Kugananthan', 'Dr Martin Lu', 'Dr Vincent Lim', 'Dr Su Anne Au', 'Dr Agnes Tan']"
Chelmsford Dental (Allied Dental),2 Chelmsford Road,Lawley,WA,6050,861462555,Not Available,http://www.chelmsforddental.com.au,"['Dr James Roberts', 'Dr Rose Cash', 'Dr Viviane Nguyen', 'Dr Bernadette Pilkington']"
Southern River Dental,1B / 714 Randford Road,River,WA,6110,894909501,Not Available,https://www.southernriverdental.com.au,['Dr Sabrina Pillay']
Murdoch Dental,Murdoch Professional Centre,Murdoch,WA,6150,893106018,893103019,http://www.murdochdental.com.au,"['Dr Behnaz Zarandion', 'Dr Geetanjali Sehgal']"
Prospect Road Dental Surgery,4 / 26 Prospect Road,Armadale,WA,6112,893992037,Not Available,https://www.prospectroaddentalsurgery.com.au,"['Dr Simrat Sandhu', 'Dr Abhishek Singh', 'Dr Akshay Dalvi', 'Dr Alefia Mithaiwala']"
Doucas Dental,1 Templeman Pl,Midland,WA,6056,892741657,892741557,http://www.doucasdental.com.au,"['Dr Gregory Doucas', 'Dr Elisia Doucas', 'Dr Kevin Kwok']"
Tee Family Dental,Unit 6 / 2 Wade Court,Girrawheen,WA,6064,893426622,Not Available,https://www.teefamilydental.com,['Dr Simon Tee']
Perth Dental Rooms (previously Carillon City Dental),Wentworth Building,Perth,WA,6000,893225340,Not Available,https://perthdentalrooms.com.au/,"['Dr Thomas Flanagan', 'Dr David Hurst', 'Dr Melanie Fowler']"
St John Dental Joondalup (Previously Apollo Dental),Joondalup Gate,Joondalup,WA,6027,894007050,894007077,http://www.stjohnhealth.com.au,"['Dr Tina Oosthuizen', 'Dr Marcus Choy', 'Dr Jack Chan', 'Dr Yvonne Tang', 'Dr Yamuna Shivananda']"
DB Dental Ellenbrook,Unit 3 / 1549 Gnangara Road,Aveley,WA,6069,1300483384,1300483384,http://www.dbdental.com.au,"['Dr James Andrews', 'Dr Kieran Brannigan', 'Dr Jake Stanley', 'Dr Rebecca Kirke', 'Dr Gurpreet Virdee', 'Dr Kalen White', 'Dr Brian Shih', 'Dr Adam Fell', 'Dr Shane Barton']"
Herald Avenue Dental Centre,7 Herald Avenue,Willetton,WA,6155,892595774,892596384,https://www.heraldavedental.com.au,"['Dr Sambavi Kugananthan', 'Dr Martin Lu', 'Dr Vincent Lim', 'Dr Su Anne Au', 'Dr Agnes Tan']"
Chelmsford Dental (Allied Dental),2 Chelmsford Road,Lawley,WA,6050,861462555,Not Available,http://www.chelmsforddental.com.au,"['Dr James Roberts', 'Dr Rose Cash', 'Dr Viviane Nguyen', 'Dr Bernadette Pilkington']"
Southern River Dental,1B / 714 Randford Road,River,WA,6110,894909501,Not Available,https://www.southernriverdental.com.au,['Dr Sabrina Pillay']
Murdoch Dental,Murdoch Professional Centre,Murdoch,WA,6150,893106018,893103019,http://www.murdochdental.com.au,"['Dr Behnaz Zarandion', 'Dr Geetanjali Sehgal']"
Prospect Road Dental Surgery,4 / 26 Prospect Road,Armadale,WA,6112,893992037,Not Available,https://www.prospectroaddentalsurgery.com.au,"['Dr Simrat Sandhu', 'Dr Abhishek Singh', 'Dr Akshay Dalvi', 'Dr Alefia Mithaiwala']"
Doucas Dental,1 Templeman Pl,Midland,WA,6056,892741657,892741557,http://www.doucasdental.com.au,"['Dr Gregory Doucas', 'Dr Elisia Doucas', 'Dr Kevin Kwok']"
Tee Family Dental,Unit 6 / 2 Wade Court,Girrawheen,WA,6064,893426622,Not Available,https://www.teefamilydental.com,['Dr Simon Tee']
Perth Dental Rooms (previously Carillon City Dental),Wentworth Building,Perth,WA,6000,893225340,Not Available,https://perthdentalrooms.com.au/,"['Dr Thomas Flanagan', 'Dr David Hurst', 'Dr Melanie Fowler']"
St John Dental Joondalup (Previously Apollo Dental),Joondalup Gate,Joondalup,WA,6027,894007050,894007077,http://www.stjohnhealth.com.au,"['Dr Tina Oosthuizen', 'Dr Marcus Choy', 'Dr Jack Chan', 'Dr Yvonne Tang', 'Dr Yamuna Shivananda']"
DB Dental Ellenbrook,Unit 3 / 1549 Gnangara Road,Aveley,WA,6069,1300483384,1300483384,http://www.dbdental.com.au,"['Dr James Andrews', 'Dr Kieran Brannigan', 'Dr Jake Stanley', 'Dr Rebecca Kirke', 'Dr Gurpreet Virdee', 'Dr Kalen White', 'Dr Brian Shih', 'Dr Adam Fell', 'Dr Shane Barton']"
Herald Avenue Dental Centre,7 Herald Avenue,Willetton,WA,6155,892595774,892596384,https://www.heraldavedental.com.au,"['Dr Sambavi Kugananthan', 'Dr Martin Lu', 'Dr Vincent Lim', 'Dr Su Anne Au', 'Dr Agnes Tan']"
Chelmsford Dental (Allied Dental),2 Chelmsford Road,Lawley,WA,6050,861462555,Not Available,http://www.chelmsforddental.com.au,"['Dr James Roberts', 'Dr Rose Cash', 'Dr Viviane Nguyen', 'Dr Bernadette Pilkington']"
Southern River Dental,1B / 714 Randford Road,River,WA,6110,894909501,Not Available,https://www.southernriverdental.com.au,['Dr Sabrina Pillay']
Murdoch Dental,Murdoch Professional Centre,Murdoch,WA,6150,893106018,893103019,http://www.murdochdental.com.au,"['Dr Behnaz Zarandion', 'Dr Geetanjali Sehgal']"
Prospect Road Dental Surgery,4 / 26 Prospect Road,Armadale,WA,6112,893992037,Not Available,https://www.prospectroaddentalsurgery.com.au,"['Dr Simrat Sandhu', 'Dr Abhishek Singh', 'Dr Akshay Dalvi', 'Dr Alefia Mithaiwala']"
Doucas Dental,1 Templeman Pl,Midland,WA,6056,892741657,892741557,http://www.doucasdental.com.au,"['Dr Gregory Doucas', 'Dr Elisia Doucas', 'Dr Kevin Kwok']"
Dental Esthetique,324 Churchill Avenue,Subiaco,WA,6008,893813791,Not Available,http://www.dentalesthetique.com.au,"['Dr Rachel Hurley', 'Dr Keenan Inderjeeth', 'Dr Thomas Flanagan']"
Third Ave Dental Centre,781 Beaufort Street,Lawley,WA,6050,893704965,892714699,http://www.thirdavenuedental.com.au/,"['Dr Vera Jordan', 'Dr Fay Asghari', 'Dr Jonathan Resnick', 'Dr Anand Ponnusamy']"
Sing Sing Dental Clinic,Unit 8 / 478 William Street,Perth,WA,6000,893289693,Not Available,http://www.singsingdental.com.au,"['Dr Sing Sing Teoh', 'Dr Christina Lin', 'Dr Lydia Hill', 'Dr Carian Sie', 'Dr Sally Law']"
St John Dental Cockburn (Previously Apollo Dental),Cockburn Gateway Shopping City,Success,WA,6164,861746050,Not Available,http://www.stjohnhealth.com.au,"['Dr Lawrence Chan', 'Dr Jonathan Lee', 'Dr Dharsh Sritharan', 'Dr Hugo Perez', 'Dr Gabrielle Rogers', 'Dr Sahara Saeedi', 'Dr Thiviya Sivapatham']"
Ashburton Dental Centre,9 / 62 Ashburton Dr,Gosnells,WA,6110,894908777,894908788,http://www.ashburtondentalcentre.com.au,"['Dr Mark Foley', 'Dr Kav Bhinder']"
The Walk In Dental Centre,Suite 4 / 52 Highclere bouelvard,Marangaroo,WA,6064,861616405,861616585,https://thewalkindentalcentre.com.au/,"['Dr Genevieve Johnson', 'Dr Parm Bains', 'Dr Karen Sandhu']"
Allied Dental Centre Cockburn,Cockburn Integrated Health,Central,WA,6164,1300859359,894986088,http://www.allieddental.com.au,"['Dr Jeff Luebbert', 'Dr Alok Mehta', 'Dr Claudia Lie', 'Dr Natania Ong', 'Dr Jennifer Lee', 'Dr Ashwati Ravindran', 'Dr Cina Yaqub']"
Access Dental Care Bull Creek,64 Bull Creek Drive,Creek,WA,6149,894687289,893327556,https://www.accessdentalcare.com.au,"['Dr Brian Wong', 'Dr Carmen Birnur', 'Dr Sarah Song', 'Dr Claire Waldock']"
Access Dental Care East Perth,128 Adelaide Terrace,Perth,WA,6004,892256888,Not Available,https://www.accessdentalcare.com.au,"['Dr Claire Waldock', 'Dr ...Rosemary ...Godfrrey', 'Dr Brian Wong']"
Dentistry Plus Leeming,62 Farrington Road,Leeming,WA,6149,893322133,Not Available,http://www.dentistryplus.com.au,"['Dr Kabir Ally', 'Dr Yu-Meng Choong', 'Dr Victor Tan']"
Dental Esthetique,324 Churchill Avenue,Subiaco,WA,6008,893813791,Not Available,http://www.dentalesthetique.com.au,"['Dr Rachel Hurley', 'Dr Keenan Inderjeeth', 'Dr Thomas Flanagan']"
Third Ave Dental Centre,781 Beaufort Street,Lawley,WA,6050,893704965,892714699,http://www.thirdavenuedental.com.au/,"['Dr Vera Jordan', 'Dr Fay Asghari', 'Dr Jonathan Resnick', 'Dr Anand Ponnusamy']"
Sing Sing Dental Clinic,Unit 8 / 478 William Street,Perth,WA,6000,893289693,Not Available,http://www.singsingdental.com.au,"['Dr Sing Sing Teoh', 'Dr Christina Lin', 'Dr Lydia Hill', 'Dr Carian Sie', 'Dr Sally Law']"
St John Dental Cockburn (Previously Apollo Dental),Cockburn Gateway Shopping City,Success,WA,6164,861746050,Not Available,http://www.stjohnhealth.com.au,"['Dr Lawrence Chan', 'Dr Jonathan Lee', 'Dr Dharsh Sritharan', 'Dr Hugo Perez', 'Dr Gabrielle Rogers', 'Dr Sahara Saeedi', 'Dr Thiviya Sivapatham']"
Ashburton Dental Centre,9 / 62 Ashburton Dr,Gosnells,WA,6110,894908777,894908788,http://www.ashburtondentalcentre.com.au,"['Dr Mark Foley', 'Dr Kav Bhinder']"
The Walk In Dental Centre,Suite 4 / 52 Highclere bouelvard,Marangaroo,WA,6064,861616405,861616585,https://thewalkindentalcentre.com.au/,"['Dr Genevieve Johnson', 'Dr Parm Bains', 'Dr Karen Sandhu']"
Allied Dental Centre Cockburn,Cockburn Integrated Health,Central,WA,6164,1300859359,894986088,http://www.allieddental.com.au,"['Dr Jeff Luebbert', 'Dr Alok Mehta', 'Dr Claudia Lie', 'Dr Natania Ong', 'Dr Jennifer Lee', 'Dr Ashwati Ravindran', 'Dr Cina Yaqub']"
Access Dental Care Bull Creek,64 Bull Creek Drive,Creek,WA,6149,894687289,893327556,https://www.accessdentalcare.com.au,"['Dr Brian Wong', 'Dr Carmen Birnur', 'Dr Sarah Song', 'Dr Claire Waldock']"
Access Dental Care East Perth,128 Adelaide Terrace,Perth,WA,6004,892256888,Not Available,https://www.accessdentalcare.com.au,"['Dr Claire Waldock', 'Dr ...Rosemary ...Godfrrey', 'Dr Brian Wong']"
Dentistry Plus Leeming,62 Farrington Road,Leeming,WA,6149,893322133,Not Available,http://www.dentistryplus.com.au,"['Dr Kabir Ally', 'Dr Yu-Meng Choong', 'Dr Victor Tan']"
Dental Esthetique,324 Churchill Avenue,Subiaco,WA,6008,893813791,Not Available,http://www.dentalesthetique.com.au,"['Dr Rachel Hurley', 'Dr Keenan Inderjeeth', 'Dr Thomas Flanagan']"
Third Ave Dental Centre,781 Beaufort Street,Lawley,WA,6050,893704965,892714699,http://www.thirdavenuedental.com.au/,"['Dr Vera Jordan', 'Dr Fay Asghari', 'Dr Jonathan Resnick', 'Dr Anand Ponnusamy']"
Sing Sing Dental Clinic,Unit 8 / 478 William Street,Perth,WA,6000,893289693,Not Available,http://www.singsingdental.com.au,"['Dr Sing Sing Teoh', 'Dr Christina Lin', 'Dr Lydia Hill', 'Dr Carian Sie', 'Dr Sally Law']"
St John Dental Cockburn (Previously Apollo Dental),Cockburn Gateway Shopping City,Success,WA,6164,861746050,Not Available,http://www.stjohnhealth.com.au,"['Dr Lawrence Chan', 'Dr Jonathan Lee', 'Dr Dharsh Sritharan', 'Dr Hugo Perez', 'Dr Gabrielle Rogers', 'Dr Sahara Saeedi', 'Dr Thiviya Sivapatham']"
Ashburton Dental Centre,9 / 62 Ashburton Dr,Gosnells,WA,6110,894908777,894908788,http://www.ashburtondentalcentre.com.au,"['Dr Mark Foley', 'Dr Kav Bhinder']"
The Walk In Dental Centre,Suite 4 / 52 Highclere bouelvard,Marangaroo,WA,6064,861616405,861616585,https://thewalkindentalcentre.com.au/,"['Dr Genevieve Johnson', 'Dr Parm Bains', 'Dr Karen Sandhu']"
Allied Dental Centre Cockburn,Cockburn Integrated Health,Central,WA,6164,1300859359,894986088,http://www.allieddental.com.au,"['Dr Jeff Luebbert', 'Dr Alok Mehta', 'Dr Claudia Lie', 'Dr Natania Ong', 'Dr Jennifer Lee', 'Dr Ashwati Ravindran', 'Dr Cina Yaqub']"
Access Dental Care Bull Creek,64 Bull Creek Drive,Creek,WA,6149,894687289,893327556,https://www.accessdentalcare.com.au,"['Dr Brian Wong', 'Dr Carmen Birnur', 'Dr Sarah Song', 'Dr Claire Waldock']"
Access Dental Care East Perth,128 Adelaide Terrace,Perth,WA,6004,892256888,Not Available,https://www.accessdentalcare.com.au,"['Dr Claire Waldock', 'Dr ...Rosemary ...Godfrrey', 'Dr Brian Wong']"
Dentistry Plus Leeming,62 Farrington Road,Leeming,WA,6149,893322133,Not Available,http://www.dentistryplus.com.au,"['Dr Kabir Ally', 'Dr Yu-Meng Choong', 'Dr Victor Tan']"
Darch Dental Centre,225 Kingsway Road,Darch,WA,6065,893039770,893039781,http://www.darchdental.com.au,"['Dr Naishadh Desai', 'Dr Gaurav Khatri']"
Willeri Dental,6 / 2 Madeira Rd,Parkwood,WA,6147,894578360,Not Available,http://www.willeridental.com.au,"['Dr Meheransh Chopra', 'Dr Vilas Menon']"
St John Dental Armadale (Previously Apollo Dental),Armadale Central Shopping Centre,Armadale,WA,6112,894981905,Not Available,http://www.stjohnhealth.com.au,"['Dr Alan Yeong', 'Dr Lawrence Chan', 'Dr Samantha Row', 'Dr Vivienne Chin', 'Dr Gabrielle Rogers', 'Dr Marcus Choy', 'Dr Thiviya Sivapatham', 'Dr Stephanie Tan', 'Dr Colleen Devine', 'Dr Elise Tan']"
Marri Gum Family Dental,814 South West Highway,Byford,WA,6122,895250888,895250688,http://www.marrigumfamilydental.com.au,"['Dr Adrian Eng', 'Dr Robert Eng']"
Dentist WA Canning Vale,1-2 / 2 Queensgate Drive,Vale,WA,6155,894554565,Not Available,https://www.dentistwa.com.au,"['Dr Saj De Silva', 'Dr Alex Park', 'Dr Maria Hui', 'Dr Gavin Coles', 'Dr Rajaa Chiri', 'Dr Vicki Foo', 'Dr Lily Taheri-Bidzard', 'Dr Suanne Lam', 'Dr Abdullah Kanbour', 'Dr Lahiru Chandraweera', 'Dr Alex Ong', 'Dr Farzam Mehrabi', 'Dr Hosam Ehdeyhed', 'Dr Yeshani Chandraweera']"
Stirling Street Dental Clinic,Ground Floor,Perth,WA,6000,892277700,Not Available,http://www.stirlingstreetdental.com.au/,"['Dr Jamie Chua', 'Dr Tze Liong Ting']"
Pearsall Dental Centre,Suite 4 / 155 Willespie Drive,Pearsall,WA,6065,894056379,894046745,http://pearsalldental.com.au/,"['Dr Ramandeep Kaur', 'Dr Kevin Keyhani']"
LifeCare Dental CBD,not available,not available,not available,not available,not available,not available,https://lifecaredental.com.au,"['Dr Rahul Sohoni', 'Dr Alex Negoescu', 'Dr Angela Pathmanthan', 'Dr Ashanth Phillips', 'Dr Joanne Berry', 'Dr Yvonne Yoo', 'Dr Negar Darabi', 'Dr Michelle Dunne', 'Dr Laith Aswad', 'Dr Ealin Lee', 'Dr Vireena Koshal', 'Dr Rainer Anderson', 'Dr Claudia Marino', 'Dr Naz Jennings', 'Dr Megan Collins', 'Dr Diffy Zhou', 'Dr Amanda Chee', 'Dr Ida Khosraviani', 'Dr Christopher Vu', 'Dr Ashley Foo', 'Dr Parnian Zareie', 'Dr Zena Ibrahim']"
Dental O So Gentle,Shop 3 The Atrium / 168 St Georges Terrace,Perth,WA,6000,862543770,892265962,http://www.dentalosogentle.com.au,"['Dr Rohan Jagota', 'Dr Jeff Broude', 'Dr Priya Shah', 'Dr Connor Willis']"
Coolamon Dental Centre,56a Mornington Parkway,Ellenbrook,WA,6069,892969970,892969472,http://www.dentistellenbrook.com.au,"['Dr Shaun Loo', 'Dr Lara Andrews', 'Dr Janni Newby', 'Dr Kent Tan', 'Dr Aron Lazaridis']"
Darch Dental Centre,225 Kingsway Road,Darch,WA,6065,893039770,893039781,http://www.darchdental.com.au,"['Dr Naishadh Desai', 'Dr Gaurav Khatri']"
Willeri Dental,6 / 2 Madeira Rd,Parkwood,WA,6147,894578360,Not Available,http://www.willeridental.com.au,"['Dr Meheransh Chopra', 'Dr Vilas Menon']"
St John Dental Armadale (Previously Apollo Dental),Armadale Central Shopping Centre,Armadale,WA,6112,894981905,Not Available,http://www.stjohnhealth.com.au,"['Dr Alan Yeong', 'Dr Lawrence Chan', 'Dr Samantha Row', 'Dr Vivienne Chin', 'Dr Gabrielle Rogers', 'Dr Marcus Choy', 'Dr Thiviya Sivapatham', 'Dr Stephanie Tan', 'Dr Colleen Devine', 'Dr Elise Tan']"
Marri Gum Family Dental,814 South West Highway,Byford,WA,6122,895250888,895250688,http://www.marrigumfamilydental.com.au,"['Dr Adrian Eng', 'Dr Robert Eng']"
Dentist WA Canning Vale,1-2 / 2 Queensgate Drive,Vale,WA,6155,894554565,Not Available,https://www.dentistwa.com.au,"['Dr Saj De Silva', 'Dr Alex Park', 'Dr Maria Hui', 'Dr Gavin Coles', 'Dr Rajaa Chiri', 'Dr Vicki Foo', 'Dr Lily Taheri-Bidzard', 'Dr Suanne Lam', 'Dr Abdullah Kanbour', 'Dr Lahiru Chandraweera', 'Dr Alex Ong', 'Dr Farzam Mehrabi', 'Dr Hosam Ehdeyhed', 'Dr Yeshani Chandraweera']"
Stirling Street Dental Clinic,Ground Floor,Perth,WA,6000,892277700,Not Available,http://www.stirlingstreetdental.com.au/,"['Dr Jamie Chua', 'Dr Tze Liong Ting']"
Pearsall Dental Centre,Suite 4 / 155 Willespie Drive,Pearsall,WA,6065,894056379,894046745,http://pearsalldental.com.au/,"['Dr Ramandeep Kaur', 'Dr Kevin Keyhani']"
LifeCare Dental CBD,not available,not available,not available,not available,not available,not available,https://lifecaredental.com.au,"['Dr Rahul Sohoni', 'Dr Alex Negoescu', 'Dr Angela Pathmanthan', 'Dr Ashanth Phillips', 'Dr Joanne Berry', 'Dr Yvonne Yoo', 'Dr Negar Darabi', 'Dr Michelle Dunne', 'Dr Laith Aswad', 'Dr Ealin Lee', 'Dr Vireena Koshal', 'Dr Rainer Anderson', 'Dr Claudia Marino', 'Dr Naz Jennings', 'Dr Megan Collins', 'Dr Diffy Zhou', 'Dr Amanda Chee', 'Dr Ida Khosraviani', 'Dr Christopher Vu', 'Dr Ashley Foo', 'Dr Parnian Zareie', 'Dr Zena Ibrahim']"
Dental O So Gentle,Shop 3 The Atrium / 168 St Georges Terrace,Perth,WA,6000,862543770,892265962,http://www.dentalosogentle.com.au,"['Dr Rohan Jagota', 'Dr Jeff Broude', 'Dr Priya Shah', 'Dr Connor Willis']"
Coolamon Dental Centre,56a Mornington Parkway,Ellenbrook,WA,6069,892969970,892969472,http://www.dentistellenbrook.com.au,"['Dr Shaun Loo', 'Dr Lara Andrews', 'Dr Janni Newby', 'Dr Kent Tan', 'Dr Aron Lazaridis']"
Darch Dental Centre,225 Kingsway Road,Darch,WA,6065,893039770,893039781,http://www.darchdental.com.au,"['Dr Naishadh Desai', 'Dr Gaurav Khatri']"
Willeri Dental,6 / 2 Madeira Rd,Parkwood,WA,6147,894578360,Not Available,http://www.willeridental.com.au,"['Dr Meheransh Chopra', 'Dr Vilas Menon']"
St John Dental Armadale (Previously Apollo Dental),Armadale Central Shopping Centre,Armadale,WA,6112,894981905,Not Available,http://www.stjohnhealth.com.au,"['Dr Alan Yeong', 'Dr Lawrence Chan', 'Dr Samantha Row', 'Dr Vivienne Chin', 'Dr Gabrielle Rogers', 'Dr Marcus Choy', 'Dr Thiviya Sivapatham', 'Dr Stephanie Tan', 'Dr Colleen Devine', 'Dr Elise Tan']"
Marri Gum Family Dental,814 South West Highway,Byford,WA,6122,895250888,895250688,http://www.marrigumfamilydental.com.au,"['Dr Adrian Eng', 'Dr Robert Eng']"
Dentist WA Canning Vale,1-2 / 2 Queensgate Drive,Vale,WA,6155,894554565,Not Available,https://www.dentistwa.com.au,"['Dr Saj De Silva', 'Dr Alex Park', 'Dr Maria Hui', 'Dr Gavin Coles', 'Dr Rajaa Chiri', 'Dr Vicki Foo', 'Dr Lily Taheri-Bidzard', 'Dr Suanne Lam', 'Dr Abdullah Kanbour', 'Dr Lahiru Chandraweera', 'Dr Alex Ong', 'Dr Farzam Mehrabi', 'Dr Hosam Ehdeyhed', 'Dr Yeshani Chandraweera']"
Stirling Street Dental Clinic,Ground Floor,Perth,WA,6000,892277700,Not Available,http://www.stirlingstreetdental.com.au/,"['Dr Jamie Chua', 'Dr Tze Liong Ting']"
Pearsall Dental Centre,Suite 4 / 155 Willespie Drive,Pearsall,WA,6065,894056379,894046745,http://pearsalldental.com.au/,"['Dr Ramandeep Kaur', 'Dr Kevin Keyhani']"
LifeCare Dental CBD,not available,not available,not available,not available,not available,not available,https://lifecaredental.com.au,"['Dr Rahul Sohoni', 'Dr Alex Negoescu', 'Dr Angela Pathmanthan', 'Dr Ashanth Phillips', 'Dr Joanne Berry', 'Dr Yvonne Yoo', 'Dr Negar Darabi', 'Dr Michelle Dunne', 'Dr Laith Aswad', 'Dr Ealin Lee', 'Dr Vireena Koshal', 'Dr Rainer Anderson', 'Dr Claudia Marino', 'Dr Naz Jennings', 'Dr Megan Collins', 'Dr Diffy Zhou', 'Dr Amanda Chee', 'Dr Ida Khosraviani', 'Dr Christopher Vu', 'Dr Ashley Foo', 'Dr Parnian Zareie', 'Dr Zena Ibrahim']"
Dental O So Gentle,Shop 3 The Atrium / 168 St Georges Terrace,Perth,WA,6000,862543770,892265962,http://www.dentalosogentle.com.au,"['Dr Rohan Jagota', 'Dr Jeff Broude', 'Dr Priya Shah', 'Dr Connor Willis']"
Coolamon Dental Centre,56a Mornington Parkway,Ellenbrook,WA,6069,892969970,892969472,http://www.dentistellenbrook.com.au,"['Dr Shaun Loo', 'Dr Lara Andrews', 'Dr Janni Newby', 'Dr Kent Tan', 'Dr Aron Lazaridis']"
Perth Family Dental (formerly dentist@morley),DENTIST@MORLEY,Morley,WA,6062,892768550,Not Available,http://www.morleydental.com.au,"['Dr Rony Gandhi', 'Dr Rachel Ocampo', 'Dr saroj Kamble', 'Dr Malavika Manikanddan', 'Dr Silas Prashant']"
Alpha Dental,Waterford Plaza Shopping Centre,Karawara,WA,6152,893131182,Not Available,http://www.alphadentalgroup.com.au,"['Dr Jason Loong', 'Dr Jocelyn Chan', 'Dr Jason Cheong']"
Dentistry Plus Joondalup,Suite 2 / 85 Reid Promenade,Joondalup,WA,6027,893001515,Not Available,http://www.dentistryplus.com.au,"['Dr Kabir Ally', 'Dr Arvin Kohli']"
Classic Dental Centre,6 / 127 The Broadview,Landsdale,WA,6065,863050299,863050290,https://www.classicdental.com.au,"['Dr Jin Jin Choo', 'Dr Paul Keong', 'Dr Vincent Goh', 'Dr Yash Sheth', 'Dr Chris Qui Huynh', 'Dr Louisa Sturgeon']"
LifeCare Dental Kingsway,not available,not available,not available,not available,not available,not available,https://lifecaredental.com.au,"['Dr Emilia Bonfanti', 'Dr Sharon Fan', 'Dr Lucy Ge', 'Dr Greer Korbosky', 'Dr Silvio Lemut', 'Dr Lydia Ling', 'Dr Alex Negoescu', 'Dr Laine Rasmussen', 'Dr Elaine Tseu', 'Dr Rainer Anderson', 'Dr Vireena Koshal', 'Dr Kavindu Caldera', 'Dr Megan Collins', 'Dr Karun Krishnan', 'Dr Ealin Lee', 'Dr Diffy Zhou']"
Vale Dental Centre,22 Blenheim Rd,Vale,WA,6155,894555880,892563442,http://www.myperthdentist.com.au,"['Dr Serene Ong', 'Dr Anjali Saini', 'Dr Sally Choden', 'Dr Hina Jani', 'Dr Hareesh Thippeswamy']"
Nicholson Road Dental Centre,Unit 5 / 11 Vostan Road,Vale,WA,6155,862542840,Not Available,http://www.dentistcanningvale.com.au,"['Dr Hossam Ismail', 'Dr Srikanth Aluru', 'Dr Mohd Makhdoom', 'Dr Naomi Martin']"
Mount Pleasant Dental Centre,Mount Pleasant Dental Centre,Applecross,WA,6153,08 9364 5580,08 9364 9472,https://www.mountpleasantdental.com.au,"['Dr Herman Jay', 'Dr Scott Bentley', 'Dr Nadia Van Zyl']"
Darlington Dental,2 Montrose Avenue,Darlington,WA,6070,892996084,Not Available,http://www.darlingtondental.com.au,"['Dr Karl Bailey', 'Dr Zuzia Zykus']"
My Midland Dentist,18 Stafford St,Midland,WA,6056,862441256,863130644,http://www.conceptdental.com.au,"['Dr Adam Brewer', 'Dr Kris Thyer', 'Dr Soheila Etemadi', 'Dr Andrew Chan', 'Dr Ian Ho', 'Dr Alice Radu', 'Dr Alvin Vo']"
Perth Family Dental (formerly dentist@morley),DENTIST@MORLEY,Morley,WA,6062,892768550,Not Available,http://www.morleydental.com.au,"['Dr Rony Gandhi', 'Dr Rachel Ocampo', 'Dr saroj Kamble', 'Dr Malavika Manikanddan', 'Dr Silas Prashant']"
Alpha Dental,Waterford Plaza Shopping Centre,Karawara,WA,6152,893131182,Not Available,http://www.alphadentalgroup.com.au,"['Dr Jason Loong', 'Dr Jocelyn Chan', 'Dr Jason Cheong']"
Dentistry Plus Joondalup,Suite 2 / 85 Reid Promenade,Joondalup,WA,6027,893001515,Not Available,http://www.dentistryplus.com.au,"['Dr Kabir Ally', 'Dr Arvin Kohli']"
Classic Dental Centre,6 / 127 The Broadview,Landsdale,WA,6065,863050299,863050290,https://www.classicdental.com.au,"['Dr Jin Jin Choo', 'Dr Paul Keong', 'Dr Vincent Goh', 'Dr Yash Sheth', 'Dr Chris Qui Huynh', 'Dr Louisa Sturgeon']"
LifeCare Dental Kingsway,not available,not available,not available,not available,not available,not available,https://lifecaredental.com.au,"['Dr Emilia Bonfanti', 'Dr Sharon Fan', 'Dr Lucy Ge', 'Dr Greer Korbosky', 'Dr Silvio Lemut', 'Dr Lydia Ling', 'Dr Alex Negoescu', 'Dr Laine Rasmussen', 'Dr Elaine Tseu', 'Dr Rainer Anderson', 'Dr Vireena Koshal', 'Dr Kavindu Caldera', 'Dr Megan Collins', 'Dr Karun Krishnan', 'Dr Ealin Lee', 'Dr Diffy Zhou']"
Vale Dental Centre,22 Blenheim Rd,Vale,WA,6155,894555880,892563442,http://www.myperthdentist.com.au,"['Dr Serene Ong', 'Dr Anjali Saini', 'Dr Sally Choden', 'Dr Hina Jani', 'Dr Hareesh Thippeswamy']"
Nicholson Road Dental Centre,Unit 5 / 11 Vostan Road,Vale,WA,6155,862542840,Not Available,http://www.dentistcanningvale.com.au,"['Dr Hossam Ismail', 'Dr Srikanth Aluru', 'Dr Mohd Makhdoom', 'Dr Naomi Martin']"
Mount Pleasant Dental Centre,Mount Pleasant Dental Centre,Applecross,WA,6153,08 9364 5580,08 9364 9472,https://www.mountpleasantdental.com.au,"['Dr Herman Jay', 'Dr Scott Bentley', 'Dr Nadia Van Zyl']"
Darlington Dental,2 Montrose Avenue,Darlington,WA,6070,892996084,Not Available,http://www.darlingtondental.com.au,"['Dr Karl Bailey', 'Dr Zuzia Zykus']"
My Midland Dentist,18 Stafford St,Midland,WA,6056,862441256,863130644,http://www.conceptdental.com.au,"['Dr Adam Brewer', 'Dr Kris Thyer', 'Dr Soheila Etemadi', 'Dr Andrew Chan', 'Dr Ian Ho', 'Dr Alice Radu', 'Dr Alvin Vo']"
Cannington Dental Centre,2/1341 Albany Highway,Cannington,WA,6107,894588646,894588656,https://canningtondental.com.au,"['Dr Zamira Imin', 'Dr Darren Chai', 'Dr Jeffrey Yong', 'Dr Elisabeth (Lisa) Staer', 'Dr Grace Gilbert', 'Dr Vanessa Ho', 'Dr Nafiz Chowdhury']"
Bentley Dental Clinic,Bentley Dental Clinic,Bentley,WA,6102,893562644,893562156,http://www.bentleydentalclinic.com.au/,"['Dr Glenn Lee', 'Dr Tom Vermeltfoort', 'Dr Aaron Wong']"
Byford Dental Centre,809 S Western Hwy,Byford,WA,6122,895250550,895250490,https://byforddental.com.au/,"['Dr Elton Wong', 'Dr Robert Eng', 'Dr Paul Milligan', 'Dr Debra Ong', 'Dr Adrian Eng']"
Gateways Dental Centre,Gateways Shopping Centre,Success,WA,6164,894986000,Not Available,http://www.gatewaysdentalcentre.com.au,"['Dr Carolyn Chiew', 'Dr Andrew House', 'Dr Ezra Oon', 'Dr Emma Perry', 'Dr Leigh Quan']"
Aim Dental Woodvale,Suite 13 / 923 Whitfords Avenue,Woodvale,WA,6026,894488677,893436631,http://www.aimdental.com.au,"['Dr David Beecham', 'Dr Evelyn Beecham', 'Dr Jarryd Chapman', 'Dr Priscilla Lam', 'Dr Hayden Brooke']"
Oxford Street Dental,Suite 3B / 356 Oxford Street,Leederville,WA,6007,892019886,Not Available,http://www.oxfordstreetdental.com.au,"['Dr Anthony Poli', 'Dr Monica Hernandez', 'Dr Jason Tang', 'Dr Nick Albatis', 'Dr Aran Moorthy', 'Dr Mark Gee']"
Malaga Dental Clinic,Suite E / 1/8 Exchange road,Malaga,WA,6090,892091355,Not Available,http://malagadental.com.au,"['Dr Nilesh Vidhate', 'Dr Naishadh Desai', 'Dr Gaurav Khatri']"
Kingsley Village Dental Centre,Suite 2 / 62 Creaney Drive,Kingsley,WA,6026,894097424,Not Available,http://www.kingsleydental.com.au,"['Dr Stephen Hollander', 'Dr Andrew Heap', 'Dr Deanne Annastasas', 'Dr Unna Chidambaram', 'Dr Michael Fong']"
Hocking Dental Care,92 Greenfields Circle,Wanneroo,WA,6065,893062755,Not Available,http://www.hockingdental.com.au,"['Dr Jessica Hunter', 'Dr AJ Kanupuru', 'Dr Mayuri Gavit', 'Dr Praveen Ayethepalle', 'Dr Hemant Suthar']"
Ellenbrook Dental Clinic,Shop 9 / 14 Main Street,Ellenbrook,WA,6069,08 9297 1117,08 9297 2117,http://www.ellenbrookdentalclinic.com.au,"['Dr Junyi Ho', 'Dr Sally Law', 'Dr Thanh Nguyen']"
Cannington Dental Centre,2/1341 Albany Highway,Cannington,WA,6107,894588646,894588656,https://canningtondental.com.au,"['Dr Zamira Imin', 'Dr Darren Chai', 'Dr Jeffrey Yong', 'Dr Elisabeth (Lisa) Staer', 'Dr Grace Gilbert', 'Dr Vanessa Ho', 'Dr Nafiz Chowdhury']"
Bentley Dental Clinic,Bentley Dental Clinic,Bentley,WA,6102,893562644,893562156,http://www.bentleydentalclinic.com.au/,"['Dr Glenn Lee', 'Dr Tom Vermeltfoort', 'Dr Aaron Wong']"
Byford Dental Centre,809 S Western Hwy,Byford,WA,6122,895250550,895250490,https://byforddental.com.au/,"['Dr Elton Wong', 'Dr Robert Eng', 'Dr Paul Milligan', 'Dr Debra Ong', 'Dr Adrian Eng']"
Gateways Dental Centre,Gateways Shopping Centre,Success,WA,6164,894986000,Not Available,http://www.gatewaysdentalcentre.com.au,"['Dr Carolyn Chiew', 'Dr Andrew House', 'Dr Ezra Oon', 'Dr Emma Perry', 'Dr Leigh Quan']"
Aim Dental Woodvale,Suite 13 / 923 Whitfords Avenue,Woodvale,WA,6026,894488677,893436631,http://www.aimdental.com.au,"['Dr David Beecham', 'Dr Evelyn Beecham', 'Dr Jarryd Chapman', 'Dr Priscilla Lam', 'Dr Hayden Brooke']"
Oxford Street Dental,Suite 3B / 356 Oxford Street,Leederville,WA,6007,892019886,Not Available,http://www.oxfordstreetdental.com.au,"['Dr Anthony Poli', 'Dr Monica Hernandez', 'Dr Jason Tang', 'Dr Nick Albatis', 'Dr Aran Moorthy', 'Dr Mark Gee']"
Malaga Dental Clinic,Suite E / 1/8 Exchange road,Malaga,WA,6090,892091355,Not Available,http://malagadental.com.au,"['Dr Nilesh Vidhate', 'Dr Naishadh Desai', 'Dr Gaurav Khatri']"
Kingsley Village Dental Centre,Suite 2 / 62 Creaney Drive,Kingsley,WA,6026,894097424,Not Available,http://www.kingsleydental.com.au,"['Dr Stephen Hollander', 'Dr Andrew Heap', 'Dr Deanne Annastasas', 'Dr Unna Chidambaram', 'Dr Michael Fong']"
Hocking Dental Care,92 Greenfields Circle,Wanneroo,WA,6065,893062755,Not Available,http://www.hockingdental.com.au,"['Dr Jessica Hunter', 'Dr AJ Kanupuru', 'Dr Mayuri Gavit', 'Dr Praveen Ayethepalle', 'Dr Hemant Suthar']"
Ellenbrook Dental Clinic,Shop 9 / 14 Main Street,Ellenbrook,WA,6069,08 9297 1117,08 9297 2117,http://www.ellenbrookdentalclinic.com.au,"['Dr Junyi Ho', 'Dr Sally Law', 'Dr Thanh Nguyen']"
Cannington Dental Centre,2/1341 Albany Highway,Cannington,WA,6107,894588646,894588656,https://canningtondental.com.au,"['Dr Zamira Imin', 'Dr Darren Chai', 'Dr Jeffrey Yong', 'Dr Elisabeth (Lisa) Staer', 'Dr Grace Gilbert', 'Dr Vanessa Ho', 'Dr Nafiz Chowdhury']"
Bentley Dental Clinic,Bentley Dental Clinic,Bentley,WA,6102,893562644,893562156,http://www.bentleydentalclinic.com.au/,"['Dr Glenn Lee', 'Dr Tom Vermeltfoort', 'Dr Aaron Wong']"
Byford Dental Centre,809 S Western Hwy,Byford,WA,6122,895250550,895250490,https://byforddental.com.au/,"['Dr Elton Wong', 'Dr Robert Eng', 'Dr Paul Milligan', 'Dr Debra Ong', 'Dr Adrian Eng']"
Gateways Dental Centre,Gateways Shopping Centre,Success,WA,6164,894986000,Not Available,http://www.gatewaysdentalcentre.com.au,"['Dr Carolyn Chiew', 'Dr Andrew House', 'Dr Ezra Oon', 'Dr Emma Perry', 'Dr Leigh Quan']"
Aim Dental Woodvale,Suite 13 / 923 Whitfords Avenue,Woodvale,WA,6026,894488677,893436631,http://www.aimdental.com.au,"['Dr David Beecham', 'Dr Evelyn Beecham', 'Dr Jarryd Chapman', 'Dr Priscilla Lam', 'Dr Hayden Brooke']"
Oxford Street Dental,Suite 3B / 356 Oxford Street,Leederville,WA,6007,892019886,Not Available,http://www.oxfordstreetdental.com.au,"['Dr Anthony Poli', 'Dr Monica Hernandez', 'Dr Jason Tang', 'Dr Nick Albatis', 'Dr Aran Moorthy', 'Dr Mark Gee']"
Malaga Dental Clinic,Suite E / 1/8 Exchange road,Malaga,WA,6090,892091355,Not Available,http://malagadental.com.au,"['Dr Nilesh Vidhate', 'Dr Naishadh Desai', 'Dr Gaurav Khatri']"
Kingsley Village Dental Centre,Suite 2 / 62 Creaney Drive,Kingsley,WA,6026,894097424,Not Available,http://www.kingsleydental.com.au,"['Dr Stephen Hollander', 'Dr Andrew Heap', 'Dr Deanne Annastasas', 'Dr Unna Chidambaram', 'Dr Michael Fong']"
Hocking Dental Care,92 Greenfields Circle,Wanneroo,WA,6065,893062755,Not Available,http://www.hockingdental.com.au,"['Dr Jessica Hunter', 'Dr AJ Kanupuru', 'Dr Mayuri Gavit', 'Dr Praveen Ayethepalle', 'Dr Hemant Suthar']"
Ellenbrook Dental Clinic,Shop 9 / 14 Main Street,Ellenbrook,WA,6069,08 9297 1117,08 9297 2117,http://www.ellenbrookdentalclinic.com.au,"['Dr Junyi Ho', 'Dr Sally Law', 'Dr Thanh Nguyen']"
Dentistry on Arnisdale,Suite 4 / 57 Arnisdale Road,Duncraig,WA,6023,894470998,892437774,https://www.dentistryonarnisdale.com.au,"['Dr David Blake', 'Dr Niyati Khedkar', 'Dr Priti Pardy']"
Cedric Street Dental Centre,4 / 51 Cedric St,Stirling,WA,6021,893451233,893455733,http://www.cedricstreetdental.com.au,"['Dr Silas Prashant', 'Dr liliana Brodie', 'Dr Rachel Ocampo', 'Dr Mahmoud Ahmed', 'Dr Pasteur (louie) Tran', 'Dr Saroj Kamble', 'Dr Rony Gandhi', 'Dr Sean Heah']"
Advanced Dental Spa Willetton,5 / 300 Vahland Ave,Willetton,WA,6155,892596008,892596108,http://www.advanceddentalspa.com.au,"['Dr Michael Lai', 'Dr Janet Woon', 'Dr Clare Ho', 'Dr Victor Tan', 'Dr Cassandra Voola']"
Sparkle Dental Joondalup,Unit 2 / 143 Grand Boulevard,Joondalup,WA,6027,893002622,Not Available,http://www.sparkledentaljoondalup.com.au,"['Dr Alex Devellerez', 'Dr Simon Frame', 'Dr Shereen Lim']"
Dental at Joondalup,Unit 7 / 189 Lakeside Dr,Joondalup,WA,6027,893014088,893014066,http://dentalatjoondalup.com.au/,"['Dr Akhil Chandra', ""Dr Ol'ga Knurova""]"
West Perth Dental Centre,West Perth Dental Centre,Perth,WA,6005,893216928,893211785,http://www.wpdentalcentre.com,"['Dr Michael Wu', 'Dr Brian McElhinney', 'Dr Mark Harrison']"
TN Dental North Perth,477 Fitzgerald St,Perth,WA,6006,892278878,not available,not available,"['Dr Karen Junghyun Kim', 'Dr Tai Nguyen']"
My Dentist @ Applecross,729 Canning Hwy,Applecross,WA,6153,893160555,893160100,https://www.mydentistapplecross.com.au,"['Dr Rodrigo Orb', 'Dr Bob Winterbottom']"
Gledden Dental,4th Floor Gledden Arcade / 731 Hay Street,Perth,WA,6000,893217671,893217766,http://www.gleddendental.com.au,"['Dr Anthony Barnes', 'Dr Owen Chin']"
Crescent Village Dental Centre,Suite 12-13 / 53 The Crescent,Midland,WA,6056,892744669,Not Available,https://crescentvillagedental.com.au,"['Dr Rob Adams', 'Dr Paul Tan', 'Dr Chin Keat Ting', 'Dr See Mun Chan', 'Dr Hanya Furdas', 'Dr Thomas Zimmermann']"
Dentistry on Arnisdale,Suite 4 / 57 Arnisdale Road,Duncraig,WA,6023,894470998,892437774,https://www.dentistryonarnisdale.com.au,"['Dr David Blake', 'Dr Niyati Khedkar', 'Dr Priti Pardy']"
Cedric Street Dental Centre,4 / 51 Cedric St,Stirling,WA,6021,893451233,893455733,http://www.cedricstreetdental.com.au,"['Dr Silas Prashant', 'Dr liliana Brodie', 'Dr Rachel Ocampo', 'Dr Mahmoud Ahmed', 'Dr Pasteur (louie) Tran', 'Dr Saroj Kamble', 'Dr Rony Gandhi', 'Dr Sean Heah']"
Advanced Dental Spa Willetton,5 / 300 Vahland Ave,Willetton,WA,6155,892596008,892596108,http://www.advanceddentalspa.com.au,"['Dr Michael Lai', 'Dr Janet Woon', 'Dr Clare Ho', 'Dr Victor Tan', 'Dr Cassandra Voola']"
Sparkle Dental Joondalup,Unit 2 / 143 Grand Boulevard,Joondalup,WA,6027,893002622,Not Available,http://www.sparkledentaljoondalup.com.au,"['Dr Alex Devellerez', 'Dr Simon Frame', 'Dr Shereen Lim']"
Dental at Joondalup,Unit 7 / 189 Lakeside Dr,Joondalup,WA,6027,893014088,893014066,http://dentalatjoondalup.com.au/,"['Dr Akhil Chandra', ""Dr Ol'ga Knurova""]"
West Perth Dental Centre,West Perth Dental Centre,Perth,WA,6005,893216928,893211785,http://www.wpdentalcentre.com,"['Dr Michael Wu', 'Dr Brian McElhinney', 'Dr Mark Harrison']"
TN Dental North Perth,477 Fitzgerald St,Perth,WA,6006,892278878,not available,not available,"['Dr Karen Junghyun Kim', 'Dr Tai Nguyen']"
My Dentist @ Applecross,729 Canning Hwy,Applecross,WA,6153,893160555,893160100,https://www.mydentistapplecross.com.au,"['Dr Rodrigo Orb', 'Dr Bob Winterbottom']"
Gledden Dental,4th Floor Gledden Arcade / 731 Hay Street,Perth,WA,6000,893217671,893217766,http://www.gleddendental.com.au,"['Dr Anthony Barnes', 'Dr Owen Chin']"
Crescent Village Dental Centre,Suite 12-13 / 53 The Crescent,Midland,WA,6056,892744669,Not Available,https://crescentvillagedental.com.au,"['Dr Rob Adams', 'Dr Paul Tan', 'Dr Chin Keat Ting', 'Dr See Mun Chan', 'Dr Hanya Furdas', 'Dr Thomas Zimmermann']"
Dentistry on Arnisdale,Suite 4 / 57 Arnisdale Road,Duncraig,WA,6023,894470998,892437774,https://www.dentistryonarnisdale.com.au,"['Dr David Blake', 'Dr Niyati Khedkar', 'Dr Priti Pardy']"
Cedric Street Dental Centre,4 / 51 Cedric St,Stirling,WA,6021,893451233,893455733,http://www.cedricstreetdental.com.au,"['Dr Silas Prashant', 'Dr liliana Brodie', 'Dr Rachel Ocampo', 'Dr Mahmoud Ahmed', 'Dr Pasteur (louie) Tran', 'Dr Saroj Kamble', 'Dr Rony Gandhi', 'Dr Sean Heah']"
Advanced Dental Spa Willetton,5 / 300 Vahland Ave,Willetton,WA,6155,892596008,892596108,http://www.advanceddentalspa.com.au,"['Dr Michael Lai', 'Dr Janet Woon', 'Dr Clare Ho', 'Dr Victor Tan', 'Dr Cassandra Voola']"
Sparkle Dental Joondalup,Unit 2 / 143 Grand Boulevard,Joondalup,WA,6027,893002622,Not Available,http://www.sparkledentaljoondalup.com.au,"['Dr Alex Devellerez', 'Dr Simon Frame', 'Dr Shereen Lim']"
Dental at Joondalup,Unit 7 / 189 Lakeside Dr,Joondalup,WA,6027,893014088,893014066,http://dentalatjoondalup.com.au/,"['Dr Akhil Chandra', ""Dr Ol'ga Knurova""]"
West Perth Dental Centre,West Perth Dental Centre,Perth,WA,6005,893216928,893211785,http://www.wpdentalcentre.com,"['Dr Michael Wu', 'Dr Brian McElhinney', 'Dr Mark Harrison']"
TN Dental North Perth,477 Fitzgerald St,Perth,WA,6006,892278878,not available,not available,"['Dr Karen Junghyun Kim', 'Dr Tai Nguyen']"
My Dentist @ Applecross,729 Canning Hwy,Applecross,WA,6153,893160555,893160100,https://www.mydentistapplecross.com.au,"['Dr Rodrigo Orb', 'Dr Bob Winterbottom']"
Gledden Dental,4th Floor Gledden Arcade / 731 Hay Street,Perth,WA,6000,893217671,893217766,http://www.gleddendental.com.au,"['Dr Anthony Barnes', 'Dr Owen Chin']"
Crescent Village Dental Centre,Suite 12-13 / 53 The Crescent,Midland,WA,6056,892744669,Not Available,https://crescentvillagedental.com.au,"['Dr Rob Adams', 'Dr Paul Tan', 'Dr Chin Keat Ting', 'Dr See Mun Chan', 'Dr Hanya Furdas', 'Dr Thomas Zimmermann']"
Cambridge City Dental,Cnr Holyrood Street,Leederville,WA,6007,893828266,893828277,http://www.ccdental.com.au,"['Dr Sam Zein', 'Dr Christopher Bucktin', 'Dr Karsten Juengling']"
Accent Dental Care,Mezzanine Floor HSBC / 190 St Georges Tce,Perth,WA,6000,892261461,1300764531,https://www.accentdental.com.au,"['Dr Peter Wroth', 'Dr Daniel Abbondanza']"
Perth Central Dental Centre,497 Wellington Street,Perth,WA,6000,892225900,894869110,https://www.perthdentalcentre.com.au,"['Dr Adrian Sue', 'Dr Tina Choo, Specialist Periodontist', 'Dr Wesley Huupponen', 'Dr Ranjeet Sekhon', 'Dr Jonathan Lo', 'Dr Vera Zirojevic', 'Dr Sigourney Amara', 'Dr Juliana Ng', 'Dr Elmer Lee', 'Dr Roderick Kirk', 'Dr Andrew Karczub', 'Dr Anne Lee']"
DB Dental South Lake,not available,not available,not available,not available,not available,not available,http://www.dbdental.com.au,"['Dr Chris Tay', 'Dr Ash Malhotra', 'Dr Jonathan Macartney', ""Dr Brian O'Donovan"", 'Dr Shane Barton', 'Dr Jennie Green', 'Dr Peter Pham', 'Dr Ailsa Malone', 'Dr Cherrin Cheong', 'Dr Rob Grundy']"
DB Dental Innaloo,not available,not available,not available,not available,not available,not available,http://www.dbdental.com.au,"['Dr Nathan Pitchforth', 'Dr Colin Dempsey', 'Dr Christopher Iles', 'Dr Helena Munaser', 'Dr Nicholas Morton', 'Dr Helen Marriott', 'Dr Jonathan Lee']"
DB Dental Riseley Street,not available,not available,not available,not available,not available,not available,http://www.dbdental.com.au,"['Dr Cherrin Cheong', 'Dr Priya Amin', 'Dr Lori Liao', 'Dr Helena Munaser', 'Dr Jason Law']"
Diamond Smiles Dental,Carramar Village Shopping Centre,Carramar,WA,6031,894052225,894052220,http://www.diamondsmilesdental.com.au/,"['Dr Garrie Rao', 'Dr Timothy Maxwell', 'Dr Maheer Shah', 'Dr Kristyna Englova']"
Nedlands Dental,Broadway Fair Shopping Centre,Nedlands,WA,6009,863892711,Not Available,https://www.dentistnedlands.com.au/,"['Dr Hoda Foroughi', 'Dr Ilana Kohan']"
Woodvale Park Dental,Woodvale Boulevard Shopping Centre,Woodvale,WA,6026,893092339,893094243,http://www.woodvaleparkdental.com.au,"['Dr Shahrukh Mody', 'Dr Yousr Kanbour', 'Dr Farzam Mehrabi', 'Dr Bernard Mullan']"
Woodvale Dental Surgery,193 Trappers Drive,Woodvale,WA,6026,893092010,894098429,http://www.woodvaledentalsurgery.com.au,"['Dr Sandra Castro', 'Dr Chris Bartlett', 'Dr Tara Habibi', 'Dr Farshad Monshizadeh', 'Dr JONATHAN Resnick']"
Cambridge City Dental,Cnr Holyrood Street,Leederville,WA,6007,893828266,893828277,http://www.ccdental.com.au,"['Dr Sam Zein', 'Dr Christopher Bucktin', 'Dr Karsten Juengling']"
Accent Dental Care,Mezzanine Floor HSBC / 190 St Georges Tce,Perth,WA,6000,892261461,1300764531,https://www.accentdental.com.au,"['Dr Peter Wroth', 'Dr Daniel Abbondanza']"
Perth Central Dental Centre,497 Wellington Street,Perth,WA,6000,892225900,894869110,https://www.perthdentalcentre.com.au,"['Dr Adrian Sue', 'Dr Tina Choo, Specialist Periodontist', 'Dr Wesley Huupponen', 'Dr Ranjeet Sekhon', 'Dr Jonathan Lo', 'Dr Vera Zirojevic', 'Dr Sigourney Amara', 'Dr Juliana Ng', 'Dr Elmer Lee', 'Dr Roderick Kirk', 'Dr Andrew Karczub', 'Dr Anne Lee']"
DB Dental South Lake,not available,not available,not available,not available,not available,not available,http://www.dbdental.com.au,"['Dr Chris Tay', 'Dr Ash Malhotra', 'Dr Jonathan Macartney', ""Dr Brian O'Donovan"", 'Dr Shane Barton', 'Dr Jennie Green', 'Dr Peter Pham', 'Dr Ailsa Malone', 'Dr Cherrin Cheong', 'Dr Rob Grundy']"
DB Dental Innaloo,not available,not available,not available,not available,not available,not available,http://www.dbdental.com.au,"['Dr Nathan Pitchforth', 'Dr Colin Dempsey', 'Dr Christopher Iles', 'Dr Helena Munaser', 'Dr Nicholas Morton', 'Dr Helen Marriott', 'Dr Jonathan Lee']"
DB Dental Riseley Street,not available,not available,not available,not available,not available,not available,http://www.dbdental.com.au,"['Dr Cherrin Cheong', 'Dr Priya Amin', 'Dr Lori Liao', 'Dr Helena Munaser', 'Dr Jason Law']"
Diamond Smiles Dental,Carramar Village Shopping Centre,Carramar,WA,6031,894052225,894052220,http://www.diamondsmilesdental.com.au/,"['Dr Garrie Rao', 'Dr Timothy Maxwell', 'Dr Maheer Shah', 'Dr Kristyna Englova']"
Nedlands Dental,Broadway Fair Shopping Centre,Nedlands,WA,6009,863892711,Not Available,https://www.dentistnedlands.com.au/,"['Dr Hoda Foroughi', 'Dr Ilana Kohan']"
Woodvale Park Dental,Woodvale Boulevard Shopping Centre,Woodvale,WA,6026,893092339,893094243,http://www.woodvaleparkdental.com.au,"['Dr Shahrukh Mody', 'Dr Yousr Kanbour', 'Dr Farzam Mehrabi', 'Dr Bernard Mullan']"
Woodvale Dental Surgery,193 Trappers Drive,Woodvale,WA,6026,893092010,894098429,http://www.woodvaledentalsurgery.com.au,"['Dr Sandra Castro', 'Dr Chris Bartlett', 'Dr Tara Habibi', 'Dr Farshad Monshizadeh', 'Dr JONATHAN Resnick']"
